IATA,LAT,LON,CITY,STATE,AIRPT_NAME,2014,2013,2012,2011,2010,2009,2008,2007,2006,2005,2004
ATL,33.63672,-84.428066,ATLANTA,GA,HARTSFIELD - JACKSON ATLANTA INTERNATIONAL AIRPORT,324512,116597,110513,97409,104050,126895,97801,76793,108195,79887,89017
ORD,41.980917,-87.906667,CHICAGO,IL,CHICAGO O'HARE INTERNATIONAL AIRPORT,318014,145369,134588,127103,149038,181291,126596,98490,122597,101531,74462
DFW,32.896828,-97.037996,DALLAS-FORT WORTH,TX,DALLAS/FORT WORTH INTERNATIONAL AIRPORT,249163,74089,61135,56734,57099,69856,47706,44655,56069,44289,57128
DEN,39.861656,-104.673177,DENVER,CO,DENVER INTERNATIONAL AIRPORT,220007,141325,136143,125648,131261,160484,107876,80570,97612,76126,60251
LAX,33.942522,-118.407161,LOS ANGELES,CA,LOS ANGELES INTERNATIONAL AIRPORT,208334,78955,72606,62874,70244,87178,60296,55762,64801,57092,50971
CLT,35.213741,-80.949069,CHARLOTTE,NC,CHARLOTTE/DOUGLAS INTERNATIONAL AIRPORT,199895,84129,82376,79924,89475,121956,85628,65736,88282,69536,46813
IAH,29.984434,-95.341442,HOUSTON,TX,GEORGE BUSH INTERCONTINENTAL/HOUSTON AIRPORT,161773,88338,76353,59887,57557,87702,71729,61676,77076,64815,51823
PHX,33.434278,-112.011583,PHOENIX,AZ,PHOENIX SKY HARBOR INTERNATIONAL AIRPORT,152915,70523,67115,65062,71491,96859,69345,61583,81208,61485,53162
MSP,44.881957,-93.221766,MINNEAPOLIS,MN,MINNEAPOLIS-ST PAUL INTERNATIONAL/WOLD-CHAMBERLAIN AIRPORT,148879,103675,102662,99490,101328,121407,89979,70325,103587,85078,59728
DTW,42.212444,-83.353389,DETROIT,MI,DETROIT METROPOLITAN WAYNE COUNTY AIRPORT,148843,98703,107884,108250,111036,125340,86132,64070,92620,74483,53671
PHL,39.872249,-75.240866,PHILADELPHIA,PA,PHILADELPHIA INTERNATIONAL AIRPORT,148401,74753,75564,81206,90143,119141,85051,69159,87980,78847,53952
LGA,40.77725,-73.872611,NEW YORK,NY,LA GUARDIA AIRPORT,135044,52304,45146,39534,40975,51076,40983,36071,44393,35484,25016
LAS,36.080056,-115.15225,LAS VEGAS,NV,MC CARRAN INTERNATIONAL AIRPORT,130845,61722,57298,48279,48590,69964,54453,56624,66836,60051,49999
BOS,42.362972,-71.006417,BOSTON,MA,GENERAL EDWARD LAWRENCE LOGAN INTERNATIONAL AIRPORT,126125,47523,41865,35653,42151,61043,46244,40057,47727,36235,27456
EWR,40.6925,-74.168667,NEWARK,NJ,NEWARK LIBERTY INTERNATIONAL AIRPORT,120514,66467,60144,52414,53702,68548,57702,46707,61222,56690,44617
DCA,38.852083,-77.037722,WASHINGTON,VA,RONALD REAGAN WASHINGTON NATIONAL AIRPORT,110859,56759,53718,47083,47547,58076,46307,37602,51059,37797,30715
JFK,40.639751,-73.778926,NEW YORK,NY,JOHN F KENNEDY INTERNATIONAL AIRPORT,104042,49055,47826,45290,53282,63732,49823,44211,44111,31606,28431
MCO,28.429394,-81.308993,ORLANDO,FL,ORLANDO INTERNATIONAL AIRPORT,100797,58996,56106,54593,58438,68185,51173,47150,63951,50831,41014
BWI,39.175361,-76.668333,BALTIMORE,MD,BALTIMORE/WASHINGTON INTERNATIONAL THURGOOD MARSHAL AIRPORT,85118,48794,46138,38256,40476,52577,36711,28045,39349,30904,22119
IAD,38.947444,-77.459944,WASHINGTON,VA,WASHINGTON DULLES INTERNATIONAL AIRPORT,84646,61819,54093,53461,59640,70856,48711,39173,44597,38610,27087
MDW,41.785972,-87.752417,CHICAGO,IL,CHICAGO MIDWAY INTERNATIONAL AIRPORT,74861,27096,20412,17999,20232,26931,13752,13995,21164,15616,12210
PDX,45.58853,-122.597481,PORTLAND,OR,PORTLAND INTERNATIONAL AIRPORT,73740,37627,35319,32719,34567,43378,34325,31085,37834,33259,26986
MIA,25.795365,-80.290116,MIAMI,FL,MIAMI INTERNATIONAL AIRPORT,73564,26306,22461,23804,24171,33157,24678,23368,29333,26901,23997
MEM,35.042417,-89.976667,MEMPHIS,TN,MEMPHIS INTERNATIONAL AIRPORT,72024,81248,89709,93996,97205,101610,86382,79609,100231,91327,61302
SAN,32.733556,-117.189667,SAN DIEGO,CA,SAN DIEGO INTERNATIONAL AIRPORT,69695,32293,28571,23582,24823,33173,25604,19138,23886,20638,17004
FLL,26.072583,-80.15275,FORT LAUDERDALE,FL,FORT LAUDERDALE/HOLLYWOOD INTERNATIONAL AIRPORT,66886,42987,39958,33413,33897,39869,36075,29077,36780,33919,21381
HNL,21.318681,-157.922429,HONOLULU,HI,HONOLULU INTERNATIONAL AIRPORT,62632,20182,18428,15751,16914,19457,16815,23127,25181,22630,21838
ANC,61.174361,-149.996361,ANCHORAGE,AK,TED STEVENS ANCHORAGE INTERNATIONAL AIRPORT,58022,58273,58750,59510,60564,58948,64191,67894,70002,66480,50715
BNA,36.124472,-86.678194,NASHVILLE,TN,NAVAL AIR STATIONHVILLE INTERNATIONAL AIRPORT,53834,35145,32458,30462,32971,39943,29501,22653,32157,30053,23523
IND,39.717299,-86.294661,INDIANAPOLIS,IN,INDIANAPOLIS INTERNATIONAL AIRPORT,50728,36404,35785,37285,40263,49561,45959,35948,44143,43167,34444
RDU,35.877639,-78.787472,RALEIGH/DURHAM,NC,RALEIGH-DURHAM INTERNATIONAL AIRPORT,50044,25297,25948,26721,28811,34135,28080,22993,28352,24859,17674
HOU,29.645419,-95.278889,HOUSTON,TX,WILLIAM P HOBBY AIRPORT,49428,25788,21070,17268,17645,25932,14481,10125,16470,11176,7057
MCI,39.297605,-94.713906,KANSAS CITY,MO,KANSAS CITY INTERNATIONAL AIRPORT,49186,30068,29337,33972,32039,39140,37084,25747,34349,28800,19347
CLE,41.409417,-81.85498,CLEVELAND,OH,CLEVELAND-HOPKINS INTERNATIONAL AIRPORT,48283,46997,40315,38590,43036,56179,48205,34659,44330,41745,30561
CVG,39.048837,-84.667822,COVINGTON,KY,CINCINNATI/NORTHERN KENTUCKY INTERNATIONAL AIRPORT,45979,33881,42464,50716,57014,69333,81926,75775,102059,152448,126989
OAK,37.721278,-122.220722,OAKLAND,CA,METROPOLITAN OAKLAND INTERNATIONAL AIRPORT,45738,20775,21781,19401,22459,25396,24920,23649,29136,25101,23090
AUS,30.194528,-97.669889,AUSTIN,TX,AUSTIN-BERGSTROM INTERNATIONAL AIRPORT,44693,28855,26955,25963,26386,29333,25663,19999,22224,20135,14333
PIT,40.491472,-80.232861,PITTSBURGH,PA,PITTSBURGH INTERNATIONAL AIRPORT,43609,29839,27043,26191,30177,39185,30717,28286,42658,38530,45921
MSY,29.993389,-90.258028,NEW ORLEANS,LA,LOUIS ARMSTRONG NEW ORLEANS INTERNATIONAL AIRPORT,40977,22686,20791,21050,22412,25262,19395,15545,18931,16441,16314
DAL,32.847111,-96.851778,DALLAS,TX,DALLAS LOVE FIELD AIRPORT,38632,9768,8472,6654,5893,9885,7174,4928,9134,5543,5326
CMH,39.997972,-82.891889,COLUMBUS,OH,PORT COLUMBUS INTERNATIONAL AIRPORT,37619,21536,21920,23286,25940,28140,25152,24088,27349,21278,14951
SAT,29.533694,-98.469778,SAN ANTONIO,TX,SAN ANTONIO INTERNATIONAL AIRPORT,36415,22388,20023,19865,21857,26322,23331,16821,24503,16666,11464
MKE,42.947211,-87.89673,MILWAUKEE,WI,GENERAL MITCHELL INTERNATIONAL AIRPORT,34963,23616,25049,33091,31567,32971,23341,15272,24687,24577,16887
BET,60.778557,-161.837177,BETHEL,AK,BETHEL AIRPORT,33865,39128,41734,42798,40077,37515,37718,38119,35791,40597,39014
OGG,20.89865,-156.43046,KAHULUI,HI,KAHULUI AIRPORT,32257,9346,10038,8643,8758,11218,9760,12347,12597,11777,10260
BDL,41.938889,-72.683222,WINDSOR LOCKS,CT,BRADLEY INTERNATIONAL AIRPORT,28720,21338,19208,19695,20004,24644,23559,20585,25111,20699,14790
JAX,30.494056,-81.687861,JACKSONVILLE,FL,JACKSONVILLE INTERNATIONAL AIRPORT,26534,13825,13965,16617,15807,22021,20221,16874,20636,17583,11982
ABQ,35.040194,-106.609194,ALBUQUERQUE,NM,ALBUQUERQUE INTERNATIONAL SUNPORT AIRPORT,26522,17755,20851,20543,21478,26653,22787,17303,23618,17520,14005
BUF,42.940525,-78.732167,BUFFALO,NY,BUFFALO NIAGARA INTERNATIONAL AIRPORT,26289,15769,15563,15207,17600,20681,17183,13985,15088,14299,13185
RSW,26.536167,-81.755167,FORT MYERS,FL,SOUTHWEST FLORIDA INTERNATIONAL AIRPORT,26216,18442,17620,17644,19205,22961,17842,17222,20548,16683,10779
ONT,34.056,-117.601194,ONTARIO,CA,ONTARIO INTERNATIONAL AIRPORT,24422,15595,15815,14905,16010,17281,18606,15659,15973,14362,14539
RIC,37.505167,-77.319667,RICHMOND,VA,RICHMOND INTERNATIONAL AIRPORT,23301,11142,9406,10432,12139,17421,14848,11558,13471,11685,9492
OMA,41.303167,-95.894056,OMAHA,NE,EPPLEY AIRFIELD,22389,15283,17743,18267,17179,19513,17057,11168,17817,16102,10506
OKC,35.393088,-97.600734,OKLAHOMA CITY,OK,WILL ROGERS WORLD AIRPORT,21626,16847,16054,14228,16254,16951,16869,12757,15018,12040,8022
PBI,26.683161,-80.095589,WEST PALM BEACH,FL,PALM BEACH INTERNATIONAL AIRPORT,20360,10573,10061,10566,11819,16084,14561,11087,13008,9453,8993
BUR,34.200667,-118.358667,BURBANK,CA,BOB HOPE AIRPORT,20338,4770,5266,4860,5745,5068,6020,4730,5229,4454,5417
ORF,36.894611,-76.201222,NORFOLK,VA,NORFOLK INTERNATIONAL AIRPORT,20041,14366,13787,14628,16470,19128,13053,10652,15622,13781,9464
ACK,41.253111,-70.060306,NANTUCKET,MA,NANTUCKET MEMORIAL AIRPORT,19840,5732,3168,2707,1507,1968,1954,1433,1640,1388,989
CHS,32.898639,-80.040528,CHARLESTON,SC,CHARLESTON AIR FORCE BASE/INTERNATIONAL AIRPORT,18341,10497,9262,8388,8535,10531,7632,6047,6525,6925,5656
FAI,64.81511,-147.856448,FAIRBANKS,AK,FAIRBANKS INTERNATIONAL AIRPORT,17837,18325,17299,18353,18005,18617,19339,18347,19605,20462,16247
PVD,41.723999,-71.428221,PROVIDENCE,RI,THEODORE FRANCIS GREEN STATE AIRPORT,17318,10488,9141,11195,14696,15073,13514,13126,14111,12624,9849
GEG,47.619861,-117.533833,SPOKANE,WA,SPOKANE INTERNATIONAL AIRPORT,17281,12308,13215,13784,14173,15940,13530,11349,14398,12060,10568
RNO,39.499111,-119.768111,RENO,NV,RENO/TAHOE INTERNATIONAL AIRPORT,17109,9257,9141,10840,11768,14362,13878,11781,12595,9952,8655
ELP,31.80725,-106.377556,EL PASO,TX,EL PASO INTERNATIONAL AIRPORT,16937,10910,10871,9120,9921,13673,10151,9212,12265,8109,8059
JNU,58.354972,-134.576278,JUNEAU,AK,JUNEAU INTERNATIONAL AIRPORT,16808,14983,15640,16768,16178,11669,11903,13103,14112,15351,13086
ROC,43.118861,-77.672389,ROCHESTER,NY,GREATER ROCHESTER INTERNATIONAL AIRPORT,16580,12508,11572,10869,13130,15619,13492,10018,14098,15208,11789
ALB,42.749111,-73.801972,ALBANY,NY,ALBANY INTERNATIONAL AIRPORT,16470,11755,9943,10374,14665,16037,12024,10553,13363,11409,7819
BOI,43.564361,-116.222861,BOISE,ID,BOISE AIR TERMINAL,16412,10555,11413,12747,13993,17065,14855,10510,16203,11034,7224
KOA,19.738766,-156.04563,KAILUA/KONA,HI,KONA INTERNATIONAL AT KEAHOLE AIRPORT,16261,4710,4632,5236,4505,5703,6314,6594,6889,5573,4961
DAY,39.902251,-84.21941,DAYTON,OH,JAMES M COX DAYTON INTERNATIONAL AIRPORT,16141,6502,7946,9149,11683,14350,9379,8152,12184,12253,12551
GRR,42.880833,-85.522806,GRAND RAPIDS,MI,GERALD R. FORD INTERNATIONAL AIRPORT,15985,14430,13036,14345,13880,13537,12250,9474,12301,10576,9128
BHM,33.563889,-86.752306,BIRMINGHAM,AL,BIRMINGHAM-SHUTTLESWORTH INTERNATIONAL AIRPORT,15847,10156,13766,13116,14337,17357,17095,11548,14889,15623,11631
DSM,41.533972,-93.663083,DES MOINES,IA,DES MOINES INTERNATIONAL AIRPORT,15564,11065,10452,11572,12420,14847,12599,10386,12646,11405,9735
GSO,36.101326,-79.941123,GREENSBORO,NC,PIEDMONT TRIAD INTERNATIONAL AIRPORT,15525,10194,10777,12059,11328,11729,12392,11919,13139,13783,12642
GSP,34.895667,-82.218861,GREER,SC,GREENVILLE SPARTANBURG INTERNATIONAL AIRPORT,13634,11424,10398,8886,7571,9910,8589,6364,9886,9301,7783
LIT,34.729444,-92.224306,LITTLE ROCK,AR,ADAMS FIELD AIRPORT,13251,7665,7526,6931,8519,8979,8431,7858,10929,9428,7437
HYA,41.669333,-70.280361,HYANNIS,MA,BARNSTABLE MUNICIPAL-BOARDMAN/POLANDO FIELD,13126,4074,982,1626,652,704,515,714,1020,604,562
MSN,43.139858,-89.337514,MADISON,WI,DANE COUNTY REGIONAL-TRUAX FIELD,12744,11399,9486,8547,8606,10996,9044,6957,9925,7168,5065
LIH,21.975983,-159.338958,LIHUE,HI,LIHUE AIRPORT,12636,4791,5536,3944,3603,3941,4228,4589,3476,3061,2399
HPN,41.066944,-73.707556,WHITE PLAINS,NY,WESTCHESTER COUNTY AIRPORT,12529,5881,5706,5565,6654,8761,5933,4021,4125,4306,2817
SAV,32.127583,-81.202139,SAVANNAH,GA,SAVANNAH/HILTON HEAD INTERNATIONAL AIRPORT,12114,5086,5290,5292,7025,9384,6275,5969,5839,5496,4732
MHT,42.932804,-71.435739,MANCHESTER,NH,MANCHESTER AIRPORT,12031,10435,8473,8053,8452,11666,11224,7936,12613,11357,10783
LGB,33.817722,-118.151611,LONG BEACH,CA,LONG BEACH /DAUGHERTY FIELD/ AIRPORT,11298,4951,4344,4418,5474,10690,4509,2086,2594,2845,2743
ICT,37.649944,-97.433056,WICHITA,KS,WICHITA MID-CONTINENT AIRPORT,11295,6281,5067,5736,5900,7152,6485,5484,4877,6345,6066
PWM,43.646167,-70.309278,PORTLAND,ME,PORTLAND INTERNATIONAL AIRPORT,11227,6522,6031,6472,7282,9092,6991,5990,7712,7201,4960
FAT,36.776194,-119.718139,FRESNO,CA,FRESNO YOSEMITE INTERNATIONAL AIRPORT,11066,4473,3839,3776,4009,5553,3699,3377,3188,2792,2275
MDT,40.193495,-76.763404,HARRISBURG,PA,HARRISBURG INTERNATIONAL AIRPORT,11000,6687,7225,7204,6374,7699,7439,6793,7641,7452,7724
CAE,33.938833,-81.119528,COLUMBIA,SC,COLUMBIA METROPOLITAN AIRPORT,10595,6138,6608,6821,6278,8915,9767,7228,10243,9598,8425
PSP,33.829667,-116.506694,PALM SPRINGS,CA,PALM SPRINGS INTERNATIONAL AIRPORT,10425,5044,4759,4040,4725,5220,3764,3842,5002,2657,2727
OTZ,66.884694,-162.5985,KOTZEBUE,AK,RALPH WIEN MEMORIAL AIRPORT,10248,12333,13056,12495,13210,13147,14287,14888,14873,14471,16009
CID,41.884689,-91.710799,CEDAR RAPIDS,IA,THE EASTERN IOWA AIRPORT,10090,5289,6486,6225,5686,7483,7298,5052,5782,5040,3317
LEX,38.0365,-84.605889,LEXINGTON,KY,BLUE GRASS AIRPORT,9900,5257,5432,6427,7008,5970,7366,5546,7283,6938,5654
COS,38.805806,-104.700778,COLORADO SPRINGS,CO,CITY OF COLORADO SPRINGS MUNICIPAL AIRPORT,9329,5481,4990,4790,4076,4798,4795,4175,5659,5029,4742
BIL,45.807667,-108.542889,BILLINGS,MT,BILLINGS LOGAN INTERNATIONAL AIRPORT,9192,6448,6562,6231,6021,7068,4531,5608,8256,7063,4840
CAK,40.916083,-81.442194,AKRON,OH,AKRON-CANTON REGIONAL AIRPORT,9120,4983,4434,5040,5481,5857,3762,4505,5729,5780,6406
BTV,44.471861,-73.153278,BURLINGTON,VT,BURLINGTON INTERNATIONAL AIRPORT,9119,4796,4900,4741,7002,6284,5642,4838,5921,4710,4571
PNS,30.473426,-87.186612,PENSACOLA,FL,PENSACOLA REGIONAL AIRPORT,8999,2901,3387,2227,2294,3875,4188,3367,4308,3803,2480
OME,64.512202,-165.445246,NOME,AK,NOME AIRPORT,8735,10148,10378,10164,10568,10896,11344,12311,12797,12938,13836
FSD,43.582013,-96.741914,SIOUX FALLS,SD,JOE FOSS FIELD AIRPORT,8653,6872,6257,6227,6216,8252,6820,6338,6899,6688,4118
MAF,31.942528,-102.201914,MIDLAND,TX,MIDLAND INTERNATIONAL AIRPORT,8630,3746,3416,3167,2516,3344,3672,3924,3927,3629,3004
MYR,33.67975,-78.928333,MYRTLE BEACH,SC,MYRTLE BEACH INTERNATIONAL AIRPORT,8609,6463,5500,6555,6739,7876,5981,4394,5733,5737,5067
HSV,34.637194,-86.775056,HUNTSVILLE,AL,HUNTSVILLE INTERNATIONAL AIRPORT-CARL T JONES FIELD,8456,7445,7095,7487,8136,8858,7568,5135,6745,6503,8109
ENA,60.573307,-151.244778,KENAI,AK,KENAI MUNICIPAL AIRPORT,8289,9813,9646,9143,9019,8738,8578,8603,8766,7246,1925
JAN,32.311167,-90.075889,JACKSON,MS,JACKSON-EVERS INTERNATIONAL AIRPORT,8288,4907,5226,4363,5067,5676,4709,4648,6575,5733,4496
LBB,33.663639,-101.822778,LUBBOCK,TX,LUBBOCK PRESTON SMITH INTERNATIONAL AIRPORT,7896,4485,4495,4133,4634,6079,5150,4166,5284,4828,4926
SBA,34.426194,-119.8415,SANTA BARBARA,CA,SANTA BARBARA MUNICIPAL AIRPORT,7876,2400,2366,2770,3301,4748,3982,3356,2975,2367,1680
EYW,24.556111,-81.759556,KEY WEST,FL,KEY WEST INTERNATIONAL AIRPORT,7753,4131,2859,1581,1048,904,3296,1635,3080,2011,1886
ADQ,57.749968,-152.493855,KODIAK,AK,KODIAK AIRPORT,7734,8594,9409,9965,9478,9687,9703,9187,10190,8443,2580
EUG,44.124583,-123.211972,EUGENE,OR,MAHLON SWEET FIELD AIRPORT,7689,3519,3330,3322,3414,4291,3682,3219,3339,2495,1717
BTR,30.532906,-91.149877,BATON ROUGE,LA,"BATON ROUGE METROPOLITAN, RYAN FIELD",7655,1787,1302,1216,1434,1622,2932,3662,4518,2903,1662
MKK,21.152886,-157.096256,KAUNAKAKAI,HI,MOLOKAI AIRPORT,7284,1149,2017,2437,1968,1870,531,468,419,284,537
GCN,35.952361,-112.146972,GRAND CANYON,AZ,GRAND CANYON NATIONAL PARK AIRPORT,7241,8725,7893,7741,7454,7089,1247,660,977,711,975
ITO,19.720263,-155.04847,HILO,HI,HILO INTERNATIONAL AIRPORT,6838,1575,1529,994,672,1520,1780,3220,2969,2194,1687
ROA,37.325472,-79.975417,ROANOKE,VA,ROANOKE REGIONAL/WOODRUM FIELD AIRPORT,6787,3897,4378,4590,4423,6062,4182,3922,5793,4874,3672
KTN,55.354075,-131.711219,KETCHIKAN,AK,KETCHIKAN INTERNATIONAL AIRPORT,6364,5419,5354,5506,5547,5571,6154,6059,5281,6002,6225
PIA,40.664201,-89.693258,PEORIA,IL,GREATER PEORIA REGIONAL AIRPORT,6273,3578,3181,2684,3979,4232,2362,2143,1788,2098,1824
MLI,41.448286,-90.50752,MOLINE,IL,QUAD CITY INTERNATIONAL AIRPORT,6225,5454,4277,4988,5477,5632,3922,2442,3159,2887,2456
FWA,40.978472,-85.195167,FORT WAYNE,IN,FORT WAYNE INTERNATIONAL AIRPORT,6167,3244,2915,3434,3622,4960,3199,5096,7009,6760,6925
CHA,35.035194,-85.203556,CHATTANOOGA,TN,LOVELL FIELD AIRPORT,6091,3990,3465,3302,3770,4521,4465,3515,5442,5240,3164
FAR,46.92065,-96.815764,FARGO,ND,HECTOR INTERNATIONAL AIRPORT,6081,3328,3399,3053,3499,3553,2572,1902,2605,2823,1451
AMA,35.219361,-101.705917,AMARILLO,TX,RICK HUSBAND AMARILLO INTERNATIONAL AIRPORT,6053,3063,2288,1941,1741,2848,2422,2064,2702,1858,1655
MFR,42.374222,-122.8735,MEDFORD,OR,ROGUE VALLEY INTERNATIONAL - MEDFORD AIRPORT,5999,3454,2763,2938,2939,5574,2931,2556,3156,1744,1122
BZN,45.77757,-111.152022,BOZEMAN,MT,GALLATIN FIELD AIRPORT,5942,4240,4220,3562,3306,3821,2952,2643,3279,1950,1211
MVY,41.393422,-70.613884,VINEYARD HAVEN,MA,MARTHAS VINEYARD AIRPORT,5934,1516,1087,1102,822,1796,777,808,1109,754,675
HOM,59.645556,-151.476583,HOMER,AK,HOMER AIRPORT,5890,6647,8584,9111,10324,10351,11159,11799,11407,10790,5762
ISP,40.79525,-73.100222,ISLIP,NY,LONG ISLAND MAC ARTHUR AIRPORT,5796,2095,2255,1781,2947,3247,2747,2063,3864,3505,3578
ILM,34.270603,-77.902558,WILMINGTON,NC,WILMINGTON INTERNATIONAL AIRPORT,5777,3577,3143,2719,2737,3734,2296,1556,1597,2064,1294
CPX,18.311778,-65.303154,ISLA DE CULEBRA,PR,BENJAMIN RIVERA NORIEGA AIRPORT,5765,304,68,0,36,0,0,0,219,297,0
CRW,38.373139,-81.593194,CHARLESTON,WV,YEAGER AIRPORT,5750,3248,3125,2622,2960,3089,1997,1581,3821,3250,2617
AKN,58.676493,-156.648691,KING SALMON,AK,KING SALMON AIRPORT,5702,6550,6656,6859,7196,7732,8325,8848,8403,8970,8526
LFT,30.20525,-91.987611,LAFAYETTE,LA,LAFAYETTE REGIONAL AIRPORT,5693,935,1453,1770,1659,1363,1250,1213,1292,927,1005
BLI,48.792694,-122.537528,BELLINGHAM,WA,BELLINGHAM INTERNATIONAL AIRPORT,5615,3931,3995,3187,2655,2899,2284,2495,2075,1694,1582
CHO,38.138639,-78.452861,CHARLOTTESVILLE,VA,CHARLOTTESVILLE-ALBEMARLE AIRPORT,5594,1710,872,1708,1434,2861,1429,1348,1477,1726,1540
SBN,41.708222,-86.317333,SOUTH BEND,IN,SOUTH BEND REGIONAL AIRPORT,5574,3035,4180,4842,5179,4600,4106,3767,4013,4729,4265
MOB,30.691417,-88.242833,MOBILE,AL,MOBILE REGIONAL AIRPORT,5557,1219,1261,1110,704,1413,2211,1250,1751,1440,1499
ABE,40.652363,-75.440401,ALLENTOWN,PA,LEHIGH VALLEY INTERNATIONAL AIRPORT,5527,4492,4825,5065,4998,6131,5496,4999,7157,6753,8481
CRP,27.770361,-97.501222,CORPUS CHRISTI,TX,CORPUS CHRISTI INTERNATIONAL AIRPORT,5512,1419,970,688,1015,1293,977,906,1332,625,1026
AVL,35.436194,-82.541806,ASHEVILLE,NC,ASHEVILLE REGIONAL AIRPORT,5504,2807,2376,3108,2970,2469,3131,2607,4468,2203,2513
GRB,44.484639,-88.129722,GREEN BAY,WI,AUSTIN STRAUBEL INTERNATIONAL AIRPORT,5410,2991,3821,3876,4662,4426,4282,4162,4888,4026,2689
RDM,44.254056,-121.149972,REDMOND,OR,ROBERTS FIELD AIRPORT,5268,2625,2038,1451,2731,3161,1942,1269,1006,607,543
FNT,42.965417,-83.743667,FLINT,MI,BISHOP INTERNATIONAL AIRPORT,5267,3510,2409,3200,3459,3907,5635,4861,5171,5788,6096
PSC,46.264694,-119.119028,PASCO,WA,TRI-CITIES AIRPORT,5243,3394,2966,2533,2560,2994,2758,1665,2925,1837,1148
ANI,61.581597,-159.543043,ANIAK,AK,ANIAK AIRPORT,5178,6409,6677,7202,7351,7646,7376,8606,9316,9896,9120
KSM,62.060833,-163.30183,ST MARY'S,AK,ST MARY'S AIRPORT,5107,6158,5967,6525,5912,5298,5842,7379,6896,5926,6874
MSO,46.916306,-114.090556,MISSOULA,MT,MISSOULA INTERNATIONAL AIRPORT,5085,1790,1967,1924,1859,2135,1834,2863,3634,2286,1718
RAP,44.045333,-103.057361,RAPID CITY,SD,RAPID CITY REGIONAL AIRPORT,4966,3100,2794,2471,3177,3301,2559,1971,1978,1445,1000
GTF,47.482654,-111.37061,GREAT FALLS,MT,GREAT FALLS INTERNATIONAL AIRPORT,4964,3439,3221,3289,3556,4806,3780,2843,4226,4274,2375
PHF,37.131889,-76.492972,NEWPORT NEWS,VA,NEWPORT NEWS/WILLIAMSBURG INTERNATIONAL AIRPORT,4885,771,1543,2429,3002,3267,2589,2314,3591,2887,1765
EMK,62.786139,-164.49075,EMMONAK,AK,EMMONAK AIRPORT,4838,5161,5779,5576,5618,5809,6190,7165,6495,6611,7037
GPT,30.407269,-89.070097,GULFPORT,MS,GULFPORT-BILOXI INTERNATIONAL AIRPORT,4646,2303,1674,2272,2477,1874,2989,2660,2893,2549,2505
FAY,34.991222,-78.880278,FAYETTEVILLE,NC,FAYETTEVILLE REGIONAL/GRANNIS FIELD,4524,1708,1478,1041,872,661,397,437,886,784,485
ATW,44.258083,-88.519083,APPLETON,WI,OUTAGAMIE COUNTY REGIONAL AIRPORT,4520,1848,2507,3358,3685,3748,3059,1889,2897,3161,2773
MRY,36.587,-121.842944,MONTEREY,CA,MONTEREY PENINSULA AIRPORT,4481,1141,1284,1516,1414,1681,2066,1873,2091,1590,886
ACY,39.457583,-74.577167,ATLANTIC CITY,NJ,ATLANTIC CITY INTERNATIONAL AIRPORT,4395,4179,5097,4518,4132,3097,2446,3084,4627,4397,3299
AGS,33.369944,-81.9645,AUGUSTA,GA,AUGUSTA REGIONAL AT BUSH FIELD,4377,1812,1511,1146,1451,1799,793,549,692,693,1153
GNV,29.690056,-82.271778,GAINESVILLE,FL,GAINESVILLE REGIONAL AIRPORT,4340,1154,1086,434,66,96,610,744,1518,1017,712
GFK,47.947267,-97.173781,GRAND FORKS,ND,GRAND FORKS INTERNATIONAL AIRPORT,4321,3669,3478,3301,3493,4243,4158,3812,4124,3945,2915
GJT,39.122413,-108.526735,GRAND JUNCTION,CO,GRAND JUNCTION REGIONAL AIRPORT,4299,1938,1847,2116,1775,3061,1020,1003,1637,924,765
DLG,59.044667,-158.5055,DILLINGHAM,AK,DILLINGHAM AIRPORT,4217,5298,6171,6421,6645,6790,7848,8150,8232,9034,9370
MFE,26.175833,-98.238611,MC ALLEN,TX,MC ALLEN MILLER INTERNATIONAL AIRPORT,4197,1222,1384,1900,1745,2441,1385,1161,1839,1258,1052
AVP,41.338472,-75.723389,WILKES-BARRE/SCRANTON,PA,WILKES-BARRE/SCRANTON INTERNATIONAL AIRPORT,4169,3233,2851,2056,1829,2958,2512,2586,3559,3277,3761
BGR,44.807444,-68.828139,BANGOR,ME,BANGOR INTERNATIONAL AIRPORT,4090,3079,3186,2742,2972,3753,2597,2667,3483,3020,2463
BFI,47.53,-122.301972,SEATTLE,WA,BOEING FIELD/KING COUNTY INTERNATIONAL AIRPORT,4081,2996,3345,3920,3519,3815,3503,3768,3414,2961,2386
AFW,32.987639,-97.318806,FORT WORTH,TX,FORT WORTH ALLIANCE AIRPORT,4016,4636,4564,4823,4185,3135,4042,4758,5990,5073,3800
LAN,42.778639,-84.586194,LANSING,MI,CAPITAL CITY AIRPORT,4001,1780,2247,2601,1829,2268,3586,3565,4039,4586,2847
ASE,39.223167,-106.868861,ASPEN,CO,ASPEN-PITKIN COUNTY/SARDY FIELD,3956,1054,818,551,503,852,784,720,943,622,621
PIE,27.91,-82.687417,ST PETERSBURG-CLEARWATER,FL,ST PETERSBURG-CLEARWATER INTERNATIONAL AIRPORT,3904,3797,3474,3434,3193,3643,3862,4651,3074,3558,5410
GRK,31.06725,-97.828917,FORT HOOD/KILLEEN,TX,ROBERT GRAY ARMY AIRFIELD,3880,1793,856,396,849,981,1336,716,865,791,245
BRW,71.285448,-156.766,BARROW,AK,WILEY POST-WILL ROGERS MEMORIAL AIRPORT,3862,4558,4375,4252,4619,4653,4595,4819,4621,4556,4895
BIS,46.772722,-100.74575,BISMARCK,ND,BISMARCK MUNICIPAL AIRPORT,3814,2151,2215,2402,2885,2957,1893,1517,2389,1637,1494
DRO,37.151517,-107.753769,DURANGO,CO,DURANGO-LA PLATA COUNTY AIRPORT,3753,1988,1659,1915,1642,2432,1904,1457,1650,1700,1537
MGM,32.300639,-86.393972,MONTGOMERY,AL,MONTGOMERY REGIONAL (DANNELLY FIELD) AIRPORT,3731,931,679,228,534,765,662,615,1076,458,1048
HRL,26.2285,-97.654389,HARLINGEN,TX,VALLEY INTERNATIONAL AIRPORT,3695,3708,2902,2657,2849,3175,3317,3010,2588,2709,2165
CPR,42.908,-106.464417,CASPER,WY,CASPER/NATRONA COUNTY INTERNATIONAL AIRPORT,3538,2245,1877,1984,2353,3318,3392,2740,2845,2315,1896
LRD,27.543799,-99.461533,LAREDO,TX,LAREDO INTERNATIONAL AIRPORT,3533,3073,3012,2829,2399,1607,2516,2290,2760,2371,2107
AUK,62.680044,-164.65992,ALAKANUK,AK,ALAKANUK AIRPORT,3522,2717,3099,2852,2768,2764,3077,3214,3097,3074,3577
EVV,38.038417,-87.530861,EVANSVILLE,IN,EVANSVILLE REGIONAL AIRPORT,3474,1863,1543,2721,2470,2104,1025,993,2835,2602,1978
BFL,35.433861,-119.057667,BAKERSFIELD,CA,MEADOWS FIELD AIRPORT,3473,3024,2824,2540,2411,2552,2371,1046,1951,805,330
KWN,59.755094,-161.845367,QUINHAGAK,AK,QUINHAGAK AIRPORT,3468,4186,4158,4002,4231,4104,4019,4263,4040,4229,3443
KWN,59.758977,-161.853642,QUINHAGAK,AK,QUINHAGAK AIRPORT,3468,4186,4158,4002,4231,4104,4019,4263,4040,4229,3443
MOT,48.257639,-101.278028,MINOT,ND,MINOT INTERNATIONAL AIRPORT,3456,1955,1906,1500,1280,796,738,774,1166,982,553
BID,41.168111,-71.577833,BLOCK ISLAND,RI,BLOCK ISLAND STATE AIRPORT,3442,272,206,101,60,319,1,4,113,87,60
ELM,42.159889,-76.891611,ELMIRA/CORNING,NY,ELMIRA/CORNING REGIONAL AIRPORT,3408,1672,1888,1614,1417,1862,1303,1387,2350,1852,1891
JAC,43.607333,-110.73775,JACKSON,WY,JACKSON HOLE AIRPORT,3325,2741,2576,2526,2123,2193,2485,2064,2974,1806,1045
KOT,63.030583,-163.53264,KOTLIK,AK,KOTLIK AIRPORT,3282,2626,2805,3037,2801,2640,3047,3072,2855,3154,3345
OAJ,34.829164,-77.612138,JACKSONVILLE,NC,ALBERT J ELLIS AIRPORT,3268,778,1121,1088,528,1552,410,279,681,837,87
AEX,31.327372,-92.548556,ALEXANDRIA,LA,ALEXANDRIA INTERNATIONAL AIRPORT,3251,1814,1328,600,974,1870,830,745,722,353,517
BMI,40.477111,-88.915917,BLOOMINGTON/NORMAL,IL,CENTRAL ILLINOIS REGIONAL AIRPORT AT BLOOMINGTON-NORMAL AIRPORT,3221,3522,2743,2517,1179,1881,1287,1251,1479,925,1049
IDA,43.513722,-112.07075,IDAHO FALLS,ID,IDAHO FALLS REGIONAL AIRPORT,3193,1130,1301,1063,1312,1615,1711,1163,1421,1244,681
AZO,42.234389,-85.551556,KALAMAZOO,MI,KALAMAZOO/BATTLE CREEK INTERNATIONAL AIRPORT,3135,1471,2104,2887,1663,2394,2241,1308,2275,2949,1890
HNH,58.096091,-135.409697,HOONAH,AK,HOONAH AIRPORT,3131,3211,3449,3531,3530,2079,2292,2394,2313,2591,1597
1G4,35.990377,-113.816424,PEACH SPRINGS,AZ,GRAND CANYON WEST AIRPORT,3104,4660,5336,1138,1004,0,2,0,0,0,0
JHM,20.962936,-156.673032,LAHAINA,HI,KAPALUA AIRPORT,3102,634,298,282,292,408,522,605,1051,499,487
HNS,59.243829,-135.523538,HAINES,AK,HAINES AIRPORT,2993,3150,3651,3669,3700,2115,2455,3666,4126,4513,2529
RFD,42.195361,-89.097222,CHICAGO/ROCKFORD,IL,CHICAGO/ROCKFORD INTERNATIONAL AIRPORT,2968,3771,4054,4244,4391,5476,6855,7062,6906,6298,5831
DLH,46.842083,-92.193639,DULUTH,MN,DULUTH INTERNATIONAL AIRPORT,2953,1476,1314,1142,2096,2368,2108,1090,2468,1633,1213
EWN,35.072972,-77.042944,NEW BERN,NC,COASTAL CAROLINA REGIONAL AIRPORT,2897,1309,1617,1607,1169,2120,1289,1300,1428,668,347
PGA,36.926083,-111.448361,PAGE,AZ,PAGE MUNICIPAL AIRPORT,2880,3072,3022,2836,2958,3502,523,191,74,362,288
LNK,40.850891,-96.759121,LINCOLN,NE,LINCOLN AIRPORT,2839,1166,1235,1337,1452,1372,828,1005,1166,830,1154
ABI,32.411306,-99.681889,ABILENE,TX,ABILENE REGIONAL AIRPORT,2822,884,1172,844,965,1148,493,485,1151,1195,825
MOU,62.095362,-163.682059,MOUNTAIN VILLAGE,AK,MOUNTAIN VILLAGE AIRPORT,2821,3237,3052,3584,3441,3150,3585,3896,3586,3983,4210
KPN,59.932951,-164.030513,KIPNUK,AK,KIPNUK AIRPORT,2797,3000,3158,3307,3422,3115,2942,3058,3282,3292,3283
KPN,59.935243,-164.031783,KIPNUK,AK,KIPNUK AIRPORT,2797,3000,3158,3307,3422,3115,2942,3058,3282,3292,3283
GAL,64.736167,-156.937389,GALENA,AK,EDWARD G. PITKA SR AIRPORT,2775,3785,3528,4348,4056,3750,3616,3750,4395,5273,4563
MBS,43.532917,-84.079639,SAGINAW,MI,MBS INTERNATIONAL AIRPORT,2756,521,1097,1748,834,2328,2376,1583,2571,2010,1937
OOK,60.541336,-165.087185,TOKSOOK BAY,AK,TOKSOOK BAY AIRPORT,2747,3022,2945,2714,2830,2903,2924,3264,2880,2908,2875
EEK,60.213671,-162.043893,EEK,AK,EEK AIRPORT,2745,3378,3007,3151,3142,2903,2919,3327,2943,3249,2826
LNY,20.785611,-156.951418,LANAI CITY,HI,LANAI AIRPORT,2685,952,706,790,483,586,446,763,516,289,537
CWA,44.777624,-89.666778,MOSINEE,WI,CENTRAL WISCONSIN AIRPORT,2683,1445,1147,2137,2108,3314,1890,1560,2848,1407,502
KUK,60.873333,-162.524306,KASIGLUK,AK,KASIGLUK AIRPORT,2682,3245,3254,3152,2880,2728,2428,2574,2791,2446,1754
KUK,60.869905,-162.524458,KASIGLUK,AK,KASIGLUK AIRPORT,2682,3245,3254,3152,2880,2728,2428,2574,2791,2446,1754
MLU,32.510866,-92.037688,MONROE,LA,MONROE REGIONAL AIRPORT,2677,701,852,600,1222,1481,757,605,610,357,147
MRI,61.213545,-149.844446,ANCHORAGE,AK,MERRILL FIELD AIRPORT,2651,3190,4158,4264,3631,3868,3784,3811,3796,3154,2898
RST,43.908278,-92.500028,ROCHESTER,MN,ROCHESTER INTERNATIONAL AIRPORT,2646,1229,1050,1971,2059,2040,2467,1944,2849,2619,1981
FYU,66.57149,-145.250417,FORT YUKON,AK,FORT YUKON AIRPORT,2644,3268,3425,3496,3337,3189,3109,3335,3281,3454,2229
GST,58.425278,-135.707417,GUSTAVUS,AK,GUSTAVUS AIRPORT,2601,2562,3274,3407,3574,868,823,1073,1116,1153,1375
ISN,48.177939,-103.642347,WILLISTON,ND,SLOULIN FIELD INTERNATIONAL AIRPORT,2600,712,948,991,1109,1375,715,399,904,1002,926
DUT,53.900139,-166.5435,UNALASKA,AK,UNALASKA AIRPORT,2572,2889,2820,2782,2665,2768,2959,3284,3219,3558,2868
BRO,25.906833,-97.425833,BROWNSVILLE,TX,BROWNSVILLE/SOUTH PADRE ISLAND INTERNATIONAL AIRPORT,2507,1157,401,658,822,984,355,428,186,94,223
CLL,30.588583,-96.363833,COLLEGE STATION,TX,EASTERWOOD FIELD AIRPORT,2444,977,1186,678,927,1281,672,531,598,716,125
ACV,40.978111,-124.108611,ARCATA/EUREKA,CA,ARCATA AIRPORT,2442,923,935,1090,1371,2406,1645,846,1675,1678,781
DAB,29.179917,-81.058056,DAYTONA BEACH,FL,DAYTONA BEACH INTERNATIONAL AIRPORT,2421,886,1021,960,1161,1744,1071,723,2176,1588,1859
KWT,60.790333,-161.443694,KWETHLUK,AK,KWETHLUK AIRPORT,2408,2842,2837,2742,2456,2014,1927,1819,1481,2283,2004
KKH,59.960806,-162.88125,KONGIGANAK,AK,KONGIGANAK AIRPORT,2387,2610,2649,2860,3093,3236,2949,2910,3108,3088,3075
KKH,59.963308,-162.879815,KONGIGANAK,AK,KONGIGANAK AIRPORT,2387,2610,2649,2860,3093,3236,2949,2910,3108,3088,3075
ERI,42.082021,-80.176216,ERIE,PA,ERIE INTERNATIONAL/TOM RIDGE FIELD,2346,389,306,479,637,1467,664,429,1612,2259,1524
ITH,42.491361,-76.458722,ITHACA,NY,ITHACA TOMPKINS REGIONAL AIRPORT,2320,1003,1218,1415,948,2316,525,129,632,468,775
HPB,61.523861,-166.146639,HOOPER BAY,AK,HOOPER BAY AIRPORT,2266,2342,2327,2628,2701,2782,3047,3175,3450,3467,3680
BGM,42.208556,-75.979722,BINGHAMTON,NY,GREATER BINGHAMTON/EDWIN A LINK FIELD,2260,163,535,421,664,2138,305,597,1681,1871,2299
ILI,59.755578,-154.917752,ILIAMNA,AK,ILIAMNA AIRPORT,2151,2730,2805,2940,2749,2809,3494,3475,3718,3968,4003
CDB,55.20515,-162.724466,COLD BAY,AK,COLD BAY AIRPORT,2110,2506,2866,3652,3819,3864,3983,3875,4162,4014,3695
PGM,59.348259,-151.831539,PORT GRAHAM,AK,PORT GRAHAM AIRPORT,2092,2311,2465,2650,3113,3058,3003,3237,3492,3314,1911
KKI,60.904833,-161.422444,AKIACHAK,AK,AKIACHAK AIRPORT,2090,2417,2542,2685,2305,1842,1701,1789,1285,2525,1881
LCK,39.813778,-82.927806,COLUMBUS,OH,RICKENBACKER INTERNATIONAL AIRPORT,2064,2377,2397,2374,2441,2322,2136,2138,2893,3090,3096
LSE,43.879266,-91.256638,LA CROSSE,WI,LA CROSSE MUNICIPAL AIRPORT,2056,1061,710,927,1246,2002,1269,988,1284,946,729
HLN,46.606806,-111.98275,HELENA,MT,HELENA REGIONAL AIRPORT,2041,1461,1570,1390,1395,2133,1237,1854,2283,2248,2803
FSM,35.336583,-94.367444,FORT SMITH,AR,FORT SMITH REGIONAL AIRPORT,2003,171,479,691,710,1108,1185,464,1223,283,455
MLB,28.102753,-80.645257,MELBOURNE,FL,MELBOURNE INTERNATIONAL AIRPORT,1969,459,932,343,913,714,662,896,974,1967,1339
FLG,35.140306,-111.66925,FLAGSTAFF,AZ,FLAGSTAFF PULLIAM AIRPORT,1946,514,794,668,857,1329,800,505,503,497,526
KEB,59.352148,-151.92516,NANWALEK,AK,NANWALEK AIRPORT,1945,2295,2687,2876,3107,3078,2988,3120,3273,3204,1686
CMI,40.038833,-88.277806,CHAMPAIGN/URBANA,IL,UNIVERSITY OF ILLINOIS-WILLARD AIRPORT,1931,627,576,661,1132,1141,810,537,1093,2063,214
PIR,44.382694,-100.285972,PIERRE,SD,PIERRE REGIONAL AIRPORT,1909,1655,1441,1658,1459,1963,1748,780,1501,1166,389
PVC,42.072278,-70.220722,PROVINCETOWN,MA,PROVINCETOWN MUNICIPAL AIRPORT,1888,128,73,11,2,7,8,18,3,0,35
PGD,26.919568,-81.990573,PUNTA GORDA,FL,CHARLOTTE COUNTY AIRPORT,1887,1201,865,1289,847,716,204,16,0,0,0
KLG,61.536274,-160.341331,KALSKAG,AK,KALSKAG AIRPORT,1880,2425,2603,2742,2652,2539,2477,2997,3255,3286,3578
LWS,46.3745,-117.015389,LEWISTON,ID,LEWISTON-NEZ PERCE COUNTY AIRPORT,1827,2059,1974,1869,2290,2558,2082,1248,2066,1139,351
HTS,38.366667,-82.558028,HUNTINGTON,WV,TRI-STATE/MILTON J. FERGUSON FIELD,1810,1231,1599,1505,1656,1621,1811,1031,1683,1503,1127
FMN,36.74125,-108.229944,FARMINGTON,NM,FOUR CORNERS REGIONAL AIRPORT,1795,1272,2006,1927,1876,1940,1846,1860,1315,1412,1642
MLL,61.864278,-162.02611,MARSHALL,AK,MARSHALL DON HUNTER SR AIRPORT,1776,1477,1420,1880,2033,1953,1985,2201,1952,2084,2327
EWB,41.676556,-70.957806,NEW BEDFORD,MA,NEW BEDFORD REGIONAL AIRPORT,1775,310,269,209,253,701,11,9,6,0,0
LEB,43.626111,-72.304194,LEBANON,NH,LEBANON MUNICIPAL AIRPORT,1740,323,121,152,150,12,100,148,8,5,1
PBG,44.650944,-73.468139,PLATTSBURGH,NY,PLATTSBURGH INTERNATIONAL AIRPORT,1736,2216,1999,1832,1324,1174,850,248,0,0,0
LCH,30.126083,-93.223417,LAKE CHARLES,LA,LAKE CHARLES REGIONAL AIRPORT,1734,958,1120,1111,816,1219,634,357,973,529,392
RKS,41.594222,-109.065194,ROCK SPRINGS,WY,ROCK SPRINGS-SWEETWATER COUNTY AIRPORT,1715,850,679,847,1376,2313,822,591,711,414,480
DIK,46.797333,-102.801861,DICKINSON,ND,DICKINSON - THEODORE ROOSEVELT REGIONAL AIRPORT,1705,1050,498,487,987,1230,495,389,1447,1465,348
LYH,37.325389,-79.200431,LYNCHBURG,VA,LYNCHBURG REGIONAL/PRESTON GLENN FIELD,1680,301,422,539,249,1025,994,440,442,325,255
KKA,64.939489,-161.154266,KOYUK,AK,KOYUK ALFRED ADAMS AIRPORT,1655,1806,1808,1743,1818,1718,1849,1973,2221,2428,2423
EGE,39.642761,-106.915935,EAGLE,CO,EAGLE COUNTY REGIONAL AIRPORT,1635,1362,1186,1072,1294,1373,1314,1340,1290,1304,1138
SAF,35.617109,-106.089423,SANTA FE,NM,SANTA FE MUNICIPAL AIRPORT,1634,1604,883,901,1017,290,17,135,288,4,8
NME,60.471047,-164.700839,NIGHTMUTE,AK,NIGHTMUTE AIRPORT,1633,1974,1667,1585,1746,1727,1732,1772,1526,1564,1562
NME,60.472746,-164.699401,NIGHTMUTE,AK,NIGHTMUTE AIRPORT,1633,1974,1667,1585,1746,1727,1732,1772,1526,1564,1562
IPL,32.834219,-115.578744,IMPERIAL,CA,IMPERIAL COUNTY AIRPORT,1597,1166,55,126,716,1431,802,2,1224,745,861
RSH,61.77489,-161.319399,RUSSIAN MISSION,AK,RUSSIAN MISSION AIRPORT,1595,1719,1943,2195,2219,2096,2108,2262,2039,2139,2321
OTH,43.416944,-124.247028,NORTH BEND,OR,SOUTHWEST OREGON REGIONAL AIRPORT,1586,1178,842,1178,1071,1997,835,638,716,630,653
AKI,60.902889,-161.230583,AKIAK,AK,AKIAK AIRPORT,1583,1870,2075,2086,1935,1607,1497,1465,1218,2505,1819
PDT,45.695056,-118.841444,PENDLETON,OR,EASTERN OREGON REGIONAL AT PENDLETON AIRPORT,1566,824,967,962,848,967,1448,1019,1564,1323,1181
MTJ,38.509796,-107.894243,MONTROSE,CO,MONTROSE REGIONAL AIRPORT,1559,1172,1011,1358,1062,1020,955,965,501,503,470
HDN,40.481167,-107.217667,HAYDEN,CO,YAMPA VALLEY AIRPORT,1538,1164,1442,1115,1799,2031,1546,1386,1192,1196,1124
DEC,39.834562,-88.865689,DECATUR,IL,DECATUR AIRPORT,1535,0,5,4,24,184,609,470,399,410,405
BQN,18.494861,-67.129444,AGUADILLA,PR,RAFAEL HERNANDEZ AIRPORT,1534,1291,1340,1508,1472,2168,2139,2148,2038,2123,2271
MWA,37.754972,-89.011083,MARION,IL,WILLIAMSON COUNTY REGIONAL AIRPORT,1510,6,19,17,19,58,73,41,7,14,7
FLO,34.185361,-79.723889,FLORENCE,SC,FLORENCE REGIONAL AIRPORT,1506,928,611,556,756,1123,698,215,628,93,185
PHO,68.348835,-166.79935,POINT HOPE,AK,POINT HOPE AIRPORT,1471,1750,1688,1641,1734,1710,1710,1435,1466,1586,2210
ACT,31.611288,-97.230519,WACO,TX,WACO REGIONAL AIRPORT,1461,450,774,538,217,178,132,138,113,232,103
MHK,39.140972,-96.670833,MANHATTAN,KS,MANHATTAN REGIONAL AIRPORT,1454,1127,861,769,458,1269,650,55,40,33,37
CSG,32.516333,-84.938861,COLUMBUS,GA,COLUMBUS METROPOLITAN AIRPORT,1437,649,884,1018,505,438,318,388,397,475,649
PKA,60.702917,-161.77831,NAPASKIAK,AK,NAPASKIAK AIRPORT,1428,1553,1843,1871,1574,1367,1414,1494,976,1511,1206
IAN,66.975954,-160.436534,KIANA,AK,BOB BAKER MEMORIAL AIRPORT,1418,1749,1857,1676,1786,1712,2065,2393,2401,2113,2600
EAT,47.398089,-120.205737,WENATCHEE,WA,PANGBORN MEMORIAL AIRPORT,1401,684,1162,707,687,710,814,715,696,694,706
PGV,35.63525,-77.385306,GREENVILLE,NC,PITT-GREENVILLE AIRPORT,1353,1023,446,344,371,1415,1290,415,367,162,240
LUP,21.21104,-156.973597,KALAUPAPA,HI,KALAUPAPA AIRPORT,1349,745,813,137,0,136,10,31,480,574,9
BVU,35.94748,-114.861097,BOULDER CITY,NV,BOULDER CITY MUNICIPAL AIRPORT,1326,1281,1833,1865,1460,1474,1501,1954,2244,1816,1274
KVL,67.736151,-164.5635,KIVALINA,AK,KIVALINA AIRPORT,1322,1555,1705,1589,1706,1629,1692,1842,1869,1850,2203
BKC,65.981565,-161.149071,BUCKLAND,AK,BUCKLAND AIRPORT,1314,1482,1653,1499,1705,1464,1657,1967,1985,1755,2098
ELI,64.614972,-162.270528,ELIM,AK,ELIM AIRPORT,1307,1504,1663,1676,1659,1488,1571,2015,2096,2092,1919
ORI,57.885377,-152.846101,PORT LIONS,AK,PORT LIONS AIRPORT,1306,1362,1651,1684,1537,1849,1723,1703,1683,1199,1061
RDD,40.509,-122.293389,REDDING,CA,REDDING MUNICIPAL AIRPORT,1297,557,546,746,1659,1934,1620,1245,1654,1287,835
DHN,31.321021,-85.449479,DOTHAN,AL,DOTHAN REGIONAL AIRPORT,1285,195,218,216,452,218,427,297,452,93,276
CDV,60.491778,-145.477556,CORDOVA,AK,MERLE K (MUDHOLE) SMITH AIRPORT,1273,1507,1588,1683,1627,1662,1671,1595,1631,1746,1550
LNS,40.122361,-76.294361,LANCASTER,PA,LANCASTER AIRPORT,1254,5,6,7,7,44,17,25,6,6,4
ABY,31.535515,-84.194473,ALBANY,GA,SOUTHWEST GEORGIA REGIONAL AIRPORT,1244,526,514,521,531,812,925,912,929,925,973
RHI,45.6309,-89.466628,RHINELANDER,WI,RHINELANDER-ONEIDA COUNTY AIRPORT,1229,945,1331,1886,1047,2661,1262,462,1202,416,231
AKP,68.133597,-151.743342,ANAKTUVUK PASS,AK,ANAKTUVUK PASS AIRPORT,1217,1427,1363,1414,1497,1450,1445,1434,1413,1454,1346
LAW,34.567714,-98.416637,LAWTON,OK,LAWTON-FORT SILL REGIONAL AIRPORT,1217,338,228,130,157,398,499,93,38,36,12
CXF,67.252179,-150.203878,COLDFOOT,AK,COLDFOOT AIRPORT,1214,1204,973,139,204,170,282,306,241,213,193
JHW,42.153389,-79.258028,JAMESTOWN,NY,CHAUTAUQUA COUNTY/JAMESTOWN AIRPORT,1207,1191,769,546,1164,1647,614,566,551,601,586
GCC,44.348917,-105.539361,GILLETTE,WY,GILLETTE-CAMPBELL COUNTY AIRPORT,1199,837,1005,1375,1706,2826,1288,694,455,396,479
GLV,64.550455,-163.00717,GOLOVIN,AK,GOLOVIN AIRPORT,1197,1322,1394,1384,1327,1225,1283,1628,1721,1842,2001
GRI,40.967543,-98.309639,GRAND ISLAND,NE,CENTRAL NEBRASKA REGIONAL AIRPORT,1190,1444,1258,1135,814,848,1220,882,917,717,403
CLM,48.120194,-123.499694,PORT ANGELES,WA,WILLIAM R FAIRCHILD INTERNATIONAL AIRPORT,1190,804,669,867,793,824,701,821,588,613,579
MAZ,18.255694,-67.148472,MAYAGUEZ,PR,EUGENIO MARIA DE HOSTOS AIRPORT,1185,0,1,0,0,0,0,0,0,0,491
LMT,42.156139,-121.733194,KLAMATH FALLS,OR,KLAMATH FALLS AIRPORT,1176,1685,1501,1200,1237,2237,958,665,630,640,639
PIH,42.909806,-112.595917,POCATELLO,ID,POCATELLO REGIONAL AIRPORT,1174,1253,833,282,281,280,287,351,515,1074,1137
AIN,70.638,-159.99475,WAINWRIGHT,AK,WAINWRIGHT AIRPORT,1155,1356,1309,1350,1517,1593,1661,2115,1906,2094,2232
AIN,70.637524,-160.010217,WAINWRIGHT,AK,WAINWRIGHT AIRPORT,1155,1356,1309,1350,1517,1593,1661,2115,1906,2094,2232
KLN,57.535083,-153.976667,LARSEN BAY,AK,LARSEN BAY AIRPORT,1152,1104,1269,1320,1207,1371,1409,1419,1492,1328,895
KLN,57.53511,-153.97842,LARSEN BAY,AK,LARSEN BAY AIRPORT,1152,1104,1269,1320,1207,1371,1409,1419,1492,1328,895
GAM,63.766766,-171.732824,GAMBELL,AK,GAMBELL AIRPORT,1127,1341,1364,1388,1433,1331,1468,1613,1495,1665,2014
ROW,33.301556,-104.530556,ROSWELL,NM,ROSWELL INTERNATIONAL AIR CENTER AIRPORT,1119,633,659,793,1423,795,383,680,433,815,506
COU,38.818093,-92.219629,COLUMBIA,MO,COLUMBIA REGIONAL AIRPORT,1107,891,545,59,108,40,381,608,823,547,609
IPT,41.241836,-76.921096,WILLIAMSPORT,PA,WILLIAMSPORT REGIONAL AIRPORT,1104,243,257,582,268,354,278,466,282,311,671
MCG,62.952783,-155.607044,MCGRATH,AK,MC GRATH AIRPORT,1099,1489,1680,2270,1529,1598,1676,2075,1824,2006,1996
HGR,39.7085,-77.7265,HAGERSTOWN,MD,HAGERSTOWN REGIONAL-RICHARD A HENSON FIELD,1077,86,55,22,56,118,16,60,2,60,64
BRL,40.783225,-91.125506,BURLINGTON,IA,SOUTHEAST IOWA REGIONAL AIRPORT,1070,1269,950,1137,1127,232,578,175,0,0,1
IFP,35.155972,-114.559444,BULLHEAD CITY,AZ,LAUGHLIN/BULLHEAD INTERNATIONAL AIRPORT,1060,1032,859,874,1462,1398,1543,1325,1173,1187,1193
HVN,41.26375,-72.886806,NEW HAVEN,CT,TWEED-NEW HAVEN AIRPORT,1057,10,178,16,24,21,31,158,112,633,125
CIC,39.795389,-121.858417,CHICO,CA,CHICO MUNICIPAL AIRPORT,1054,261,261,263,261,266,507,492,453,448,412
PQI,46.688972,-68.044806,PRESQUE ISLE,ME,NORTHERN MAINE REGIONAL AIRPORT AT PRESQUE ISLE AIRPORT,1049,1263,859,317,309,309,316,352,312,337,338
RKD,44.060074,-69.099257,ROCKLAND,ME,KNOX COUNTY REGIONAL AIRPORT,1043,12,0,10,7,6,258,222,1128,333,46
KTS,65.331333,-166.465722,BREVIG MISSION,AK,BREVIG MISSION AIRPORT,1041,1243,1324,1319,1322,1355,1221,1454,1575,1601,1433
PSG,56.801667,-132.945278,PETERSBURG,AK,PETERSBURG JAMES A JOHNSON AIRPORT,1034,1124,1067,1036,1032,938,1018,1050,1039,1033,1179
GNU,59.117417,-161.577444,GOODNEWS,AK,GOODNEWS AIRPORT,1029,1353,1266,1515,1461,1562,1286,1286,1004,1127,1132
PUW,46.743861,-117.109583,"PULLMAN/MOSCOW,ID",WA,PULLMAN/MOSCOW REGIONAL AIRPORT,1024,373,381,388,596,822,267,145,309,13,58
CEC,41.780167,-124.236528,CRESCENT CITY,CA,JACK MC NAMARA FIELD AIRPORT,1022,1218,854,720,985,1317,978,698,1269,1261,683
CGI,37.225317,-89.570752,CAPE GIRARDEAU,MO,CAPE GIRARDEAU REGIONAL AIRPORT,998,3,3,10,2,425,338,32,16,25,12
AUG,44.32065,-69.797318,AUGUSTA,ME,AUGUSTA STATE AIRPORT,995,9,1,1,220,435,310,85,31,60,13
HCR,62.188333,-159.77492,HOLY CROSS,AK,HOLY CROSS AIRPORT,993,1338,1274,1230,1250,1302,1509,1828,1800,1931,2284
ATY,44.913972,-97.154722,WATERTOWN,SD,WATERTOWN REGIONAL AIRPORT,988,385,355,55,236,1388,436,92,927,423,358
RIW,43.064235,-108.459841,RIVERTON,WY,RIVERTON REGIONAL AIRPORT,988,624,237,323,493,100,587,382,433,452,264
NUL,64.729311,-158.074222,NULATO,AK,NULATO AIRPORT,984,1205,1195,1893,1692,1461,1430,1501,1625,1676,1918
HSL,65.697861,-156.351389,HUSLIA,AK,HUSLIA AIRPORT,958,1112,1342,1360,1401,1305,1280,1306,1495,1619,1729
MGW,39.642908,-79.916314,MORGANTOWN,WV,MORGANTOWN MUNICIPAL-WALTER L. BILL HART FIELD,954,923,872,714,617,1264,781,16,108,58,305
NUI,70.209953,-151.005561,NUIQSUT,AK,NUIQSUT AIRPORT,940,1357,1260,1341,1608,1039,1081,910,889,1082,1600
NUI,70.212875,-150.995697,NUIQSUT,AK,NUIQSUT AIRPORT,940,1357,1260,1341,1608,1039,1081,910,889,1082,1600
EAR,40.727028,-99.006778,KEARNEY,NE,KEARNEY REGIONAL AIRPORT,932,457,1065,470,297,319,576,765,251,24,223
COD,44.520194,-109.023806,CODY,WY,YELLOWSTONE REGIONAL AIRPORT,931,1065,1154,1072,944,1277,1008,715,779,722,598
PLN,45.570917,-84.796722,PELLSTON,MI,PELLSTON REGIONAL AIRPORT OF EMMET COUNTY AIRPORT,925,717,595,590,910,754,438,391,893,520,558
DUJ,41.178278,-78.898694,DUBOIS,PA,DUBOIS REGIONAL AIRPORT,922,1200,1006,1101,1169,670,404,193,126,322,343
BHB,44.449769,-68.361565,BAR HARBOR,ME,HANCOCK COUNTY-BAR HARBOR AIRPORT,919,452,523,10,576,813,149,204,218,215,75
OBU,66.912342,-156.897331,KOBUK,AK,KOBUK AIRPORT,910,1272,1286,1228,1229,1049,1169,1240,1253,1452,1493
BTT,66.913944,-151.529056,BETTLES,AK,BETTLES AIRPORT,899,957,914,888,933,812,912,933,1036,1118,1190
PKB,39.345104,-81.439203,PARKERSBURG,WV,MID-OHIO VALLEY REGIONAL AIRPORT,895,314,7,37,660,843,601,152,617,128,32
KVC,55.116348,-162.26623,KING COVE,AK,KING COVE AIRPORT,888,964,1232,1482,1542,1538,1512,1584,1886,1852,1571
PTU,59.011518,-161.819416,PLATINUM,AK,PLATINUM AIRPORT,879,1099,1039,1341,1327,1350,1077,917,669,744,715
GCK,37.927528,-100.724417,GARDEN CITY,KS,GARDEN CITY REGIONAL AIRPORT,869,755,633,861,425,1275,1141,1049,1581,1724,1246
IRK,40.0935,-92.544917,KIRKSVILLE,MO,KIRKSVILLE REGIONAL AIRPORT,866,0,0,0,454,673,464,161,563,476,0
FKL,41.377874,-79.860362,FRANKLIN,PA,VENANGO REGIONAL AIRPORT,865,1134,1078,1148,1161,1224,535,168,368,470,91
OWB,37.742239,-87.165702,OWENSBORO,KY,OWENSBORO-DAVIESS COUNTY AIRPORT,855,123,202,135,115,129,12,41,574,202,2
CKB,39.296639,-80.228083,CLARKSBURG,WV,NORTH CENTRAL WEST VIRGINIA AIRPORT,854,995,978,1025,1040,1017,851,266,124,280,60
BPT,29.950833,-94.020694,BEAUMONT/PORT ARTHUR,TX,SOUTHEAST TEXAS REGIONAL AIRPORT,852,210,32,18,35,42,321,454,449,363,372
OGS,44.681861,-75.4655,OGDENSBURG,NY,OGDENSBURG INTERNATIONAL AIRPORT,851,1,0,1,0,1,182,232,848,590,14
ATK,70.467276,-157.435736,ATQASUK,AK,ATQASUK EDWARD BURNELL SR MEMORIAL AIRPORT,849,1014,1047,1021,1061,1082,1083,1384,1465,1699,1904
GTR,33.450333,-88.591361,COLUMBUS/W POINT/STARKVILLE,MS,GOLDEN TRIANGLE REGIONAL AIRPORT,843,25,35,566,1348,930,52,45,178,55,479
RUT,43.529907,-72.949615,RUTLAND,VT,RUTLAND - SOUTHERN VERMONT REGIONAL AIRPORT,841,1,3,13,3,3,122,239,1039,982,333
ABR,45.449056,-98.421833,ABERDEEN,SD,ABERDEEN REGIONAL AIRPORT,836,359,411,587,515,292,452,998,858,1136,1074
ELD,33.220972,-92.813278,EL DORADO,AR,SOUTH ARKANSAS REGIONAL AT GOODWIN FIELD,834,1190,1236,447,68,3,504,92,1217,852,14
BQK,31.259034,-81.466316,BRUNSWICK,GA,BRUNSWICK GOLDEN ISLES AIRPORT,831,7,3,5,5,158,5,5,3,8,14
MSS,44.935833,-74.845556,MASSENA,NY,MASSENA INTERNATIONAL-RICHARDS FIELD,828,0,0,0,0,0,59,351,601,899,322
NYL,32.656583,-114.605972,YUMA,AZ,YUMA MARINE CORPS AIR STATION/YUMA INTERNATIONAL AIRPORT,828,1058,1137,1145,1029,611,576,3,0,1,7
LBF,41.126222,-100.683667,NORTH PLATTE,NE,NORTH PLATTE REGIONAL AIRPORT LEE BIRD FIELD,823,646,377,323,346,411,464,331,337,339,319
BJI,47.510722,-94.934722,BEMIDJI,MN,BEMIDJI REGIONAL AIRPORT,822,434,663,878,688,868,727,588,761,499,378
BFF,41.874028,-103.595639,SCOTTSBLUFF,NE,WESTERN NEB. REGIONAL/WILLIAM B. HEILIG FIELD,818,593,543,360,769,630,710,297,880,299,306
ALS,37.434917,-105.866556,ALAMOSA,CO,SAN LUIS VALLEY REGIONAL/BERGMAN FIELD,816,132,158,55,64,144,52,46,72,159,5
EKO,40.824917,-115.791694,ELKO,NV,ELKO REGIONAL AIRPORT,815,2,1,3,9,8,14,10,483,1393,440
OLF,48.094518,-105.575054,WOLF POINT,MT,L M CLAYTON AIRPORT,810,1008,1155,1107,652,1289,425,633,1166,1171,626
IMT,45.818361,-88.114556,IRON MOUNTAIN KINGSFORD,MI,FORD AIRPORT,810,980,970,1080,711,1356,628,324,1347,1137,685
LBE,40.274611,-79.40675,LATROBE,PA,ARNOLD PALMER REGIONAL AIRPORT,804,932,650,324,57,458,306,67,366,97,200
RBY,64.727222,-155.469889,RUBY,AK,RUBY AIRPORT,802,1069,931,1385,1367,1266,1426,1560,1556,1612,1950
HRO,36.261521,-93.154729,HARRISON,AR,BOONE COUNTY AIRPORT,784,1176,1357,1374,418,3,594,402,899,618,27
JBR,35.831709,-90.646418,JONESBORO,AR,JONESBORO MUNICIPAL AIRPORT,777,3,376,624,58,1,306,78,622,500,20
DBQ,42.402,-90.709472,DUBUQUE,IA,DUBUQUE REGIONAL AIRPORT,777,371,360,756,541,1095,586,203,244,396,235
CDC,37.700966,-113.098846,CEDAR CITY,UT,CEDAR CITY REGIONAL AIRPORT,774,938,1011,470,868,878,593,905,910,271,259
KAL,64.31898,-158.741306,KALTAG,AK,KALTAG AIRPORT,755,980,1017,1499,1397,1196,1243,1227,1454,1400,1560
BRD,46.40175,-94.135583,BRAINERD,MN,BRAINERD LAKES REGIONAL AIRPORT,755,884,561,564,246,476,695,764,611,311,362
KGX,62.894561,-160.064904,GRAYLING,AK,GRAYLING AIRPORT,752,887,916,923,961,949,1037,1277,1383,1385,1633
CMX,47.168417,-88.489061,HANCOCK,MI,HOUGHTON COUNTY MEMORIAL AIRPORT,752,409,315,313,318,967,924,617,860,311,268
JST,40.316111,-78.833944,JOHNSTOWN,PA,JOHN MURTHA JOHNSTOWN-CAMBRIA COUNTY AIRPORT,745,1100,903,754,1078,1008,730,303,460,619,584
CYS,41.155639,-104.810472,CHEYENNE,WY,CHEYENNE REGIONAL/JERRY OLSON FIELD AIRPORT,739,513,287,479,375,552,443,419,440,576,411
BFD,41.803068,-78.640121,BRADFORD,PA,BRADFORD REGIONAL AIRPORT,737,856,789,646,903,1346,566,20,1178,381,52
APN,45.078083,-83.560306,ALPENA,MI,ALPENA COUNTY REGIONAL AIRPORT,736,872,924,590,593,1309,765,500,1180,594,257
ESC,45.722667,-87.093722,ESCANABA,MI,DELTA COUNTY AIRPORT,733,868,1434,1039,584,1322,772,565,1161,618,569
PRC,34.654444,-112.419611,PRESCOTT,AZ,ERNEST A. LOVE FIELD AIRPORT,727,1202,647,435,715,1716,411,4,3,36,98
IAG,43.107333,-78.946194,NIAGARA FALLS,NY,NIAGARA FALLS INTERNATIONAL AIRPORT,725,734,812,936,337,209,221,495,499,507,496
CIU,46.25075,-84.472389,SAULT STE MARIE,MI,CHIPPEWA COUNTY INTERNATIONAL AIRPORT,723,904,720,422,500,966,946,637,641,706,30
MKL,35.599889,-88.915611,JACKSON,TN,MC KELLAR-SIPES REGIONAL AIRPORT,715,1092,914,3,5,4,17,58,582,511,13
PIZ,69.732875,-163.005342,POINT LAY,AK,POINT LAY LRRS AIRPORT,693,845,798,807,920,866,967,943,850,990,1136
MUE,20.001327,-155.668107,KAMUELA,HI,WAIMEA-KOHALA AIRPORT,677,206,15,16,39,516,128,384,1116,769,285
ILG,39.678722,-75.606639,WILMINGTON,DE,NEW CASTLE AIRPORT,675,362,14,9,14,8,103,88,243,26,20
AOO,40.296361,-78.320028,ALTOONA,PA,ALTOONA-BLAIR COUNTY AIRPORT,664,819,873,547,878,897,519,464,310,278,345
ANV,62.647328,-160.190067,ANVIK,AK,ANVIK AIRPORT,663,862,820,804,815,822,909,1235,1213,1274,1567
PSE,18.008306,-66.563028,PONCE,PR,MERCEDITA AIRPORT,661,957,941,979,985,872,916,1056,778,243,0
AET,66.551833,-152.622167,ALLAKAKET,AK,ALLAKAKET AIRPORT,655,762,785,1156,1250,1169,1139,1242,1158,1239,1296
BTI,70.133989,-143.58187,BARTER ISLAND LRRS,AK,BARTER ISLAND LRRS AIRPORT,650,748,945,1100,742,842,910,677,705,804,926
RDB,68.032111,-162.899194,RED DOG,AK,RED DOG AIRPORT,648,806,892,952,1026,878,946,997,903,857,802
BTM,45.954806,-112.497472,BUTTE,MT,BERT MOONEY AIRPORT,632,63,214,108,334,688,281,17,764,712,408
KNK,59.433286,-154.802592,KOKHANOK,AK,KOKHANOK AIRPORT,630,799,850,907,769,767,829,850,931,980,1009
KNK,59.433257,-154.806715,KOKHANOK,AK,KOKHANOK AIRPORT,630,799,850,907,769,767,829,850,931,980,1009
EGX,58.18549,-157.375428,EGEGIK,AK,EGEGIK AIRPORT,624,780,790,869,943,925,1010,1006,1209,1363,1053
MMH,37.624056,-118.83875,MAMMOTH LAKES,CA,MAMMOTH YOSEMITE AIRPORT,620,763,623,589,510,156,13,0,0,0,0
HOT,34.478028,-93.096222,HOT SPRINGS,AR,MEMORIAL FIELD AIRPORT,620,893,1041,629,29,101,711,180,1290,734,58
LAR,41.312056,-105.675,LARAMIE,WY,LARAMIE REGIONAL AIRPORT,610,124,550,611,419,172,442,197,629,493,73
GGW,48.2125,-106.614722,GLASGOW,MT,WOKAL FIELD/GLASGOW INTERNATIONAL AIRPORT,595,535,552,616,661,798,117,135,611,637,105
GDV,47.138719,-104.807198,GLENDIVE,MT,DAWSON COMMUNICIPALTY AIRPORT,586,556,611,613,499,470,121,245,734,762,339
JLN,37.151814,-94.498268,JOPLIN,MO,JOPLIN REGIONAL AIRPORT,581,346,176,52,11,7,48,204,544,164,17
GGG,32.384014,-94.711487,LONGVIEW,TX,EAST TEXAS REGIONAL AIRPORT,581,714,713,550,649,731,38,66,38,29,22
MKG,43.167672,-86.235439,MUSKEGON,MI,MUSKEGON COUNTY AIRPORT,573,177,61,7,61,242,495,354,360,384,559
ORH,42.267339,-71.875709,WORCESTER,MA,WORCESTER REGIONAL AIRPORT,570,99,123,423,332,284,51,14,153,30,23
EAU,44.865805,-91.484255,EAU CLAIRE,WI,CHIPPEWA VALLEY REGIONAL AIRPORT,570,188,86,144,509,811,287,431,600,375,249
DDC,37.763122,-99.965424,DODGE CITY,KS,DODGE CITY REGIONAL AIRPORT,569,441,597,1263,1006,1313,1573,1108,2049,1931,355
MCN,32.69285,-83.649211,MACON,GA,MIDDLE GEORGIA REGIONAL AIRPORT,559,532,67,55,56,368,808,542,388,297,403
PAH,37.060288,-88.772958,PADUCAH,KY,BARKLEY REGIONAL AIRPORT,558,289,7,62,232,313,10,15,318,109,7
HVR,48.542972,-109.762333,HAVRE,MT,HAVRE CITY-COUNTY AIRPORT,556,527,601,559,519,444,114,87,589,545,154
ALW,46.094778,-118.289,WALLA WALLA,WA,WALLA WALLA REGIONAL AIRPORT,555,647,468,109,656,1003,89,84,304,8,220
KYU,64.875806,-157.730444,KOYUKUK,AK,KOYUKUK AIRPORT,551,633,717,1050,1154,994,945,873,1030,988,883
ARC,68.114669,-145.579415,ARCTIC VILLAGE,AK,ARCTIC VILLAGE AIRPORT,549,697,680,719,686,674,730,678,676,745,748
ART,43.991922,-76.021739,WATERTOWN,NY,WATERTOWN INTERNATIONAL AIRPORT,544,602,604,123,1,73,82,563,906,408,271
MYU,60.37142,-166.270608,MEKORYUK,AK,MEKORYUK AIRPORT,543,676,816,952,1101,1086,1217,1266,972,1150,1214
LWB,37.858306,-80.399472,LEWISBURG,WV,GREENBRIER VALLEY AIRPORT,543,657,684,798,885,701,539,998,1139,1194,1154
BKW,37.787326,-81.124164,BECKLEY,WV,RALEIGH COUNTY MEMORIAL AIRPORT,537,581,484,593,570,738,987,498,1141,801,726
INL,48.565583,-93.402167,INTERNATIONAL FALLS,MN,FALLS INTERNATIONAL AIRPORT,537,659,477,263,84,636,707,547,1003,637,778
ALO,42.557081,-92.400344,WATERLOO,IA,WATERLOO REGIONAL AIRPORT,532,675,479,756,207,720,298,291,354,396,141
LBL,37.044222,-100.959861,LIBERAL,KS,LIBERAL MID-AMERICA REGIONAL AIRPORT,530,1127,1063,293,151,822,894,531,696,746,333
HON,44.385194,-98.228556,HURON,SD,HURON REGIONAL AIRPORT,526,774,736,607,592,589,611,579,696,508,20
GUC,38.533944,-106.933028,GUNNISON,CO,GUNNISON-CRESTED BUTTE REGIONAL AIRPORT,521,469,426,362,531,587,364,216,285,235,345
HIB,47.386583,-92.838972,HIBBING,MN,CHISHOLM-HIBBING AIRPORT,520,629,1018,658,618,1159,677,267,1144,264,133
GUP,35.511058,-108.789309,GALLUP,NM,GALLUP MUNICIPAL AIRPORT,512,602,613,608,610,611,887,962,609,614,622
HNM,20.795637,-156.014438,HANA,HI,HANA AIRPORT,510,228,0,0,0,183,19,29,711,165,123
CNM,32.337472,-104.263278,CARLSBAD,NM,CAVERN CITY AIR TERMINAL AIRPORT,507,614,671,975,1268,1458,988,1,1134,819,507
HOB,32.687528,-103.217028,HOBBS,NM,LEA COUNTY REGIONAL AIRPORT,502,582,593,298,386,455,724,16,622,565,208
MWH,47.208583,-119.319139,MOSES LAKE,WA,GRANT COUNTY INTERNATIONAL AIRPORT,494,646,629,627,893,1065,725,717,1365,1590,1082
AKK,56.938691,-154.182556,AKHIOK,AK,AKHIOK AIRPORT,493,437,648,621,694,681,673,620,697,635,531
LUK,39.103333,-84.418611,CINCINNATI,OH,CINCINNATI MUNICIPAL AIRPORT LUNKEN FIELD,491,28,40,96,49,22,20,33,19,17,28
KMO,58.932058,-158.901897,MANOKOTAK,AK,MANOKOTAK AIRPORT,484,710,877,851,1002,1018,1167,1137,1175,1113,1334
EKA,40.803389,-124.112792,EUREKA,CA,MURRAY FIELD AIRPORT,483,541,565,570,593,593,589,506,577,517,132
FOE,38.950944,-95.663611,TOPEKA,KS,FORBES FIELD AIRPORT,478,59,51,55,61,53,55,134,149,52,39
MEI,32.332624,-88.751868,MERIDIAN,MS,KEY FIELD AIRPORT,478,647,172,188,674,666,217,7,0,14,106
KNW,59.451538,-157.373164,NEW STUYAHOK,AK,NEW STUYAHOK AIRPORT,476,674,875,1066,873,921,1111,1239,1106,1307,1557
IGM,35.259472,-113.938056,KINGMAN,AZ,KINGMAN AIRPORT,473,783,506,260,439,619,178,93,10,35,89
DRT,29.374207,-100.927157,DEL RIO,TX,DEL RIO INTERNATIONAL AIRPORT,470,757,1103,644,684,1184,517,536,131,31,48
MCE,37.28475,-120.513917,MERCED,CA,MERCED REGIONAL//MACREADY FIELD,464,522,467,218,167,749,321,67,534,286,107
PIB,31.467139,-89.337056,HATTIESBURG/LAUREL,MS,HATTIESBURG-LAUREL REGIONAL AIRPORT,461,599,535,299,63,736,12,17,463,46,12
NNL,59.98023,-154.839175,NONDALTON,AK,NONDALTON AIRPORT,451,506,544,599,553,495,633,717,868,824,890
NNL,59.97904,-154.83969,NONDALTON,AK,NONDALTON AIRPORT,451,506,544,599,553,495,633,717,868,824,890
GLH,33.482881,-90.985614,GREENVILLE,MS,MID DELTA REGIONAL AIRPORT,448,253,509,70,68,720,60,29,484,12,96
CEZ,37.303,-108.628056,CORTEZ,CO,CORTEZ MUNICIPAL AIRPORT,447,5,169,55,173,142,59,40,10,13,17
MOD,37.625817,-120.954421,MODESTO,CA,MODESTO CITY-COUNTY-HARRY SHAM FIELD,442,6,10,15,12,0,5,7,5,1,1
PUB,38.289138,-104.496502,PUEBLO,CO,PUEBLO MEMORIAL AIRPORT,434,460,254,311,189,517,608,129,658,643,222
ONP,44.578863,-124.062116,NEWPORT,OR,NEWPORT MUNICIPAL AIRPORT,419,508,566,823,832,1178,613,140,0,0,0
CNY,38.754956,-109.754844,MOAB,UT,CANYONLANDS FIELD AIRPORT,418,877,938,628,832,817,671,85,578,450,99
FRG,40.728781,-73.413407,FARMINGDALE,NY,REPUBLIC AIRPORT,417,327,335,320,138,105,353,135,111,69,101
HUS,66.039083,-154.264694,HUGHES,AK,HUGHES AIRPORT,410,502,484,801,891,838,757,753,863,1034,1022
CHU,61.579056,-159.215639,CHUATHBALUK,AK,CHUATHBALUK AIRPORT,398,516,620,809,749,782,620,863,929,1369,1297
JMS,46.929722,-98.678194,JAMESTOWN,ND,JAMESTOWN REGIONAL AIRPORT,397,302,550,428,389,933,1020,657,606,595,611
PTK,42.665636,-83.420506,PONTIAC,MI,OAKLAND COUNTY INTERNATIONAL AIRPORT,389,370,537,470,462,393,938,1215,282,225,260
MSL,34.745306,-87.610222,MUSCLE SHOALS,AL,NORTHWEST ALABAMA REGIONAL AIRPORT,381,535,505,61,57,839,371,263,653,77,19
AHN,33.948595,-83.326347,ATHENS,GA,ATHENS/BEN EPPS AIRPORT,366,594,520,594,171,58,128,36,660,531,20
KGK,59.726642,-157.25947,KOLIGANEK,AK,KOLIGANEK AIRPORT,360,472,571,639,606,562,661,860,757,743,957
KGK,59.726902,-157.266877,KOLIGANEK,AK,KOLIGANEK AIRPORT,360,472,571,639,606,562,661,860,757,743,957
PTH,56.959101,-158.633362,PORT HEIDEN,AK,PORT HEIDEN AIRPORT,357,569,665,731,675,672,716,943,1138,1208,1373
PVU,40.219194,-111.723361,PROVO,UT,PROVO MUNICIPAL AIRPORT,352,226,388,215,22,17,8,18,18,17,11
HYS,38.842222,-99.273167,HAYS,KS,HAYS REGIONAL AIRPORT,351,515,582,360,245,792,989,785,1276,769,609
LKK,58.98208,-155.121272,KULIK LAKE,AK,KULIK LAKE AIRPORT,348,348,151,337,331,309,344,265,225,283,311
CIK,66.645022,-143.73993,CHALKYITSIK,AK,CHALKYITSIK AIRPORT,344,440,479,433,408,521,535,589,557,614,772
IWD,46.527475,-90.131397,IRONWOOD,MI,GOGEBIC-IRON COUNTY AIRPORT,338,613,427,578,268,653,462,58,661,53,4
CLP,58.833694,-158.529389,CLARKS POINT,AK,CLARKS POINT AIRPORT,324,436,438,528,420,402,466,563,605,842,758
IGG,59.324042,-155.901773,IGIUGIG,AK,IGIUGIG AIRPORT,319,373,386,407,422,466,522,553,608,697,681
MMU,40.79935,-74.414875,MORRISTOWN,NJ,MORRISTOWN MUNICIPAL AIRPORT,304,12,19,27,22,19,26,37,16,4,0
KYK,57.566086,-154.453883,KARLUK,AK,KARLUK AIRPORT,300,322,355,412,385,381,501,541,574,540,444
ENV,40.718694,-114.030889,WENDOVER,UT,WENDOVER AIRPORT,278,351,420,423,360,397,369,361,366,255,0
KEK,59.354806,-157.472083,EKWOK,AK,EKWOK AIRPORT,274,347,429,543,459,465,556,632,623,665,700
PIP,57.580381,-157.571957,PILOT POINT,AK,PILOT POINT AIRPORT,272,396,496,570,660,612,686,706,868,958,956
PIP,57.57846,-157.56873,PILOT POINT,AK,PILOT POINT AIRPORT,272,396,496,570,660,612,686,706,868,958,956
DVL,48.114583,-98.908333,DEVILS LAKE,ND,DEVILS LAKE REGIONAL AIRPORT,267,458,256,679,688,628,602,589,578,599,602
CVN,34.425139,-103.079278,CLOVIS,NM,CLOVIS MUNICIPAL AIRPORT,266,469,523,563,574,582,596,124,847,600,8
PTA,60.204333,-154.318873,PORT ALSWORTH,AK,PORT ALSWORTH AIRPORT,261,272,248,246,286,215,250,273,290,341,262
PTA,60.203051,-154.318657,PORT ALSWORTH,AK,PORT ALSWORTH AIRPORT,261,272,248,246,286,215,250,273,290,341,262
GKN,62.154944,-145.454333,GULKANA,AK,GULKANA AIRPORT,255,315,298,294,307,267,245,221,215,251,251
CDR,42.837556,-103.095389,CHADRON,NE,CHADRON MUNICIPAL AIRPORT,250,871,734,662,325,1198,704,193,605,616,24
EAA,64.778083,-141.149611,EAGLE,AK,EAGLE AIRPORT,249,272,294,339,350,408,338,423,497,593,692
GBD,38.34425,-98.859194,GREAT BEND,KS,GREAT BEND MUNICIPAL AIRPORT,241,530,595,621,569,889,1174,627,603,585,592
MBL,44.272472,-86.246889,MANISTEE,MI,MANISTEE COUNTY-BLACKER AIRPORT,241,0,244,494,102,661,359,98,610,501,8
KFP,54.847446,-163.410322,FALSE PASS,AK,FALSE PASS AIRPORT,234,245,255,290,295,362,374,308,282,294,274
MQY,36.008972,-86.520083,SMYRNA,TN,SMYRNA AIRPORT,229,177,292,99,87,25,11,40,39,27,44
KLL,59.128083,-156.858639,LEVELOCK,AK,LEVELOCK AIRPORT,226,286,328,343,409,443,587,824,699,785,871
MTH,24.726194,-81.051361,MARATHON,FL,THE FLORIDA KEYS MARATHON AIRPORT,224,269,268,267,277,284,304,489,256,512,279
PSM,43.077944,-70.823278,PORTSMOUTH,NH,PORTSMOUTH INTERNATIONAL AT PEASE AIRPORT,215,49,69,45,44,79,376,347,361,332,475
IYK,35.658741,-117.829533,INYOKERN,CA,INYOKERN AIRPORT,214,657,565,252,251,545,259,256,256,263,262
AIA,42.053222,-102.803778,ALLIANCE,NE,ALLIANCE MUNICIPAL AIRPORT,212,605,817,928,789,743,817,572,949,926,356
PAE,47.906987,-122.281572,EVERETT,WA,SNOHOMISH COUNTY (PAINE FIELD) AIRPORT,203,147,127,88,99,89,76,46,5,6,7
KPV,55.906667,-159.160833,PERRYVILLE,AK,PERRYVILLE AIRPORT,197,294,255,278,254,253,340,361,373,405,437
KCL,56.311047,-158.534267,CHIGNIK LAGOON,AK,CHIGNIK LAGOON AIRPORT,196,333,399,435,454,466,475,509,548,553,584
GYY,41.616278,-87.412778,GARY,IN,GARY/CHICAGO INTERNATIONAL AIRPORT,196,161,212,80,69,44,69,238,60,350,457
PML,56.005986,-160.560792,COLD BAY,AK,PORT MOLLER AIRPORT,195,169,215,244,256,302,297,302,291,311,277
JQF,35.387775,-80.709136,CONCORD,NC,CONCORD REGIONAL AIRPORT,194,143,146,160,407,308,202,123,3,10,0
KCQ,56.255583,-158.775804,CHIGNIK LAKE,AK,CHIGNIK LAKE AIRPORT,188,324,358,518,539,556,591,765,808,840,850
MEO,35.917406,-75.700133,MANTEO,NC,DARE COUNTY REGIONAL AIRPORT,183,228,229,251,251,253,253,40,1,0,0
IAB,37.630446,-97.26064,WICHITA,KS,MC CONNELL AIR FORCE BASE,182,120,76,46,24,20,41,9,3,0,0
RDV,61.788076,-157.350309,RED DEVIL,AK,RED DEVIL AIRPORT,153,244,294,313,361,368,452,630,684,844,842
RMP,65.5079,-150.14083,RAMPART,AK,RAMPART AIRPORT,147,198,234,196,223,175,220,229,252,314,369
MCK,40.206278,-100.592083,MC COOK,NE,MC COOK BEN NELSON REGIONAL AIRPORT,143,849,950,884,897,1109,890,61,225,68,70
BED,42.469953,-71.28903,BEDFORD,MA,LAURENCE G HANSCOM FIELD AIRPORT,129,156,503,519,156,156,229,776,494,358,214
PAQ,61.600622,-149.091733,PALMER,AK,PALMER MUNICIPAL AIRPORT,101,7,9,3,50,41,13,30,30,31,21
IKO,52.941556,-168.849028,NIKOLSKI,AK,NIKOLSKI AS AIRPORT,99,88,54,94,88,111,108,122,122,157,157
ADK,51.877964,-176.646031,ADAK ISLAND,AK,ADAK AIRPORT,93,107,109,99,110,110,100,118,111,105,110
ADS,32.968559,-96.836448,DALLAS,TX,ADDISON AIRPORT,90,39,47,40,56,43,27,59,35,36,52
BLV,38.545167,-89.835194,BELLEVILLE,IL,SCOTT AIR FORCE BASE/MIDAMERICA AIRPORT,76,97,17,4,38,56,208,241,225,238,50
NCN,60.077306,-147.99189,CHENEGA,AK,CHENEGA BAY AIRPORT,66,85,111,102,109,104,64,123,148,156,164
FBK,64.837615,-147.614489,FAIRBANKS/FT WAINWRIGHT,AK,LADD ARMY AIRFIELD,64,140,149,74,228,191,110,228,157,380,440
MKC,39.123169,-94.592758,KANSAS CITY,MO,CHARLES B. WHEELER DOWNTOWN AIRPORT,63,47,55,57,33,63,55,39,6,4,13
CGF,41.565111,-81.486361,CLEVELAND,OH,CUYAHOGA COUNTY AIRPORT,52,15,1,0,2,0,2,3,1,0,0
FOD,42.551194,-94.191833,FORT DODGE,IA,FORT DODGE REGIONAL AIRPORT,52,161,425,136,94,166,22,29,14,28,19
NGU,36.937462,-76.289263,NORFOLK,VA,NORFOLK NS (CHAMBERS FIELD) AIRPORT,47,9,27,7,31,81,120,78,71,131,176
LAF,40.412306,-86.936889,LAFAYETTE,IN,PURDUE UNIVERSITY AIRPORT,46,47,49,47,42,39,48,60,25,28,46
BTL,42.307278,-85.25148,BATTLE CREEK,MI,W K KELLOGG AIRPORT,44,2,19,6,14,8,9,23,16,12,25
MCW,43.157792,-93.331261,MASON CITY,IA,MASON CITY MUNICIPAL AIRPORT,43,113,329,249,34,142,1,2,1,1,2
ISO,35.331444,-77.608833,KINSTON,NC,KINSTON REGIONAL JETPORT AT STALLINGS FIELD,40,42,88,107,109,99,121,171,351,67,59
HTO,40.959417,-72.251667,EAST HAMPTON,NY,EAST HAMPTON AIRPORT,38,34,25,40,23,17,35,27,6,1,0
BMG,39.146021,-86.61668,BLOOMINGTON,IN,MONROE COUNTY AIRPORT,31,31,37,46,35,29,28,24,18,24,29
RME,43.233806,-75.407028,ROME,NY,GRIFFISS INTERNATIONAL AIRPORT,31,49,21,29,20,34,35,37,3,5,5
CPS,38.570724,-90.156221,CAHOKIA/ST LOUIS,IL,ST LOUIS DOWNTOWN AIRPORT,31,32,7,3,11,7,42,0,0,1,1
OXC,41.478556,-73.13525,OXFORD,CT,WATERBURY-OXFORD AIRPORT,29,45,17,32,33,24,44,31,15,1,0
BKL,41.5175,-81.683333,CLEVELAND,OH,BURKE LAKEFRONT AIRPORT,29,24,44,34,43,27,45,44,38,36,30
OCF,29.171877,-82.224115,OCALA,FL,OCALA INTERNATIONAL-JIM TAYLOR FIELD,28,17,27,32,24,27,196,100,24,26,37
BWG,36.964528,-86.419667,BOWLING GREEN,KY,BOWLING GREEN-WARREN COUNTY REGIONAL AIRPORT,26,132,75,93,19,11,16,14,349,500,186
PPC,66.814056,-150.643611,PROSPECT CREEK,AK,PROSPECT CREEK AIRPORT,26,38,32,31,30,28,32,25,33,31,34
ANB,33.588167,-85.858111,ANNISTON,AL,ANNISTON METROPOLITAN AIRPORT,25,18,22,6,19,19,12,14,6,16,7
GBH,68.479667,-149.489917,GALBRAITH LAKE,AK,GALBRAITH LAKE AIRPORT,25,31,35,38,49,64,63,65,62,64,38
BAF,42.157731,-72.71562,WESTFIELD/SPRINGFIELD,MA,BARNES MUNICIPAL AIRPORT,23,8,7,7,10,5,9,2,3,0,0
OPF,25.907,-80.278389,MIAMI,FL,OPA- LOCKA EXECUTIVE AIRPORT,22,20,39,20,37,73,147,64,96,38,58
BDR,41.163472,-73.126167,BRIDGEPORT,CT,IGOR I SIKORSKY MEMORIAL AIRPORT,20,26,31,10,0,51,164,206,251,166,96
FOK,40.843655,-72.631789,WESTHAMPTON BEACH,NY,FRANCIS S GABRESKI AIRPORT,18,21,18,13,4,12,6,13,5,2,2
EDF,61.251347,-149.806514,ANCHORAGE,AK,ELMENDORF AIR FORCE BASE,17,13,41,122,119,6,17,3,30,29,54
DOV,39.1295,-75.466,DOVER,DE,DOVER AIR FORCE BASE,16,27,41,84,70,147,105,80,42,43,38
APA,39.570111,-104.849306,DENVER,CO,CENTENNIAL AIRPORT,16,8,10,12,7,13,4,9,6,1,0
EFD,29.607333,-95.15875,HOUSTON,TX,ELLINGTON FIELD AIRPORT,16,22,11,32,31,38,57,67,95,66,319
CEF,42.194014,-72.534783,SPRINGFIELD/CHICOPEE,MA,WESTOVER ARB/METROPOLITAN AIRPORT,16,29,22,29,25,25,125,185,27,2,3
FNL,40.451827,-105.011336,FORT COLLINS/LOVELAND,CO,FORT COLLINS-LOVELAND MUNICIPAL AIRPORT,15,44,264,342,275,244,240,228,280,299,274
CON,43.202722,-71.502278,CONCORD,NH,CONCORD MUNICIPAL AIRPORT,14,41,13,0,2,0,0,0,0,0,0
PWK,42.11429,-87.901538,CHICAGO/PROSPECT HEIGHTS/WHEELING,IL,CHICAGO EXECUTIVE AIRPORT,13,2,1,4,4,5,9,15,23,13,13
NIP,30.233857,-81.674965,JACKSONVILLE,FL,JACKSONVILLE NAVAL AIR STATION (TOWERS FIELD),13,1,3,2,8,47,48,23,29,62,88
DPA,41.906944,-88.248203,CHICAGO/WEST CHICAGO,IL,DUPAGE AIRPORT,12,17,10,16,15,3,3,32,59,38,77
NTD,34.119272,-119.119578,POINT MUGU,CA,POINT MUGU NAVAL AIR STATION (NAVAL BASE VENTURA COUNTY),12,4,2,2,1,2,2,5,10,8,2
GUS,40.648094,-86.152119,PERU,IN,GRISSOM AIR RESERVE BASE,11,11,0,0,1,30,35,0,0,0,0
APC,38.213194,-122.280694,NAPA,CA,NAPA COUNTY AIRPORT,11,13,8,10,12,4,2,2,1,1,0
A63,59.074525,-160.275042,TWIN HILLS,AK,TWIN HILLS AIRPORT,11,3,5,4,0,0,10,7,4,1,0
FYV,36.005095,-94.170057,FAYETTEVILLE,AR,DRAKE FIELD AIRPORT,11,15,24,30,41,35,38,42,14,16,12
INT,36.133722,-80.222,WINSTON SALEM,NC,SMITH REYNOLDS AIRPORT,10,25,52,26,61,171,213,156,90,223,355
RDG,40.3785,-75.96525,READING,PA,READING REGIONAL/CARL A SPAATZ FIELD,10,10,16,18,19,16,18,18,19,19,54
FTW,32.819778,-97.362444,FORT WORTH,TX,FORT WORTH MEACHAM INTERNATIONAL AIRPORT,9,3,4,7,12,9,10,33,15,9,31
LAL,27.988917,-82.018556,LAKELAND,FL,LAKELAND LINDER REGIONAL AIRPORT,8,9,165,240,12,1,1,2,0,0,0
LEW,44.048473,-70.283507,AUBURN/LEWISTON,ME,AUBURN/LEWISTON MUNICIPAL AIRPORT,8,10,5,1,1,2,0,1,1,0,1
AGC,40.354401,-79.930169,PITTSBURGH,PA,ALLEGHENY COUNTY AIRPORT,8,8,5,11,2,2,2,7,0,2,1
PNE,40.081944,-75.010583,PHILADELPHIA,PA,NORTHEAST PHILADELPHIA AIRPORT,8,6,6,2,3,2,16,6,1,2,4
BLM,40.186778,-74.124583,BELMAR/FARMINGDALE,NJ,MONMOUTH EXECUTIVE AIRPORT,8,5,4,4,3,46,15,13,0,0,1
BIF,31.8495,-106.38,FORT BLISS/EL PASO/,TX,BIGGS ARMY AIRFIELD (FORT BLISS),8,11,29,25,35,33,25,64,44,71,57
RIV,33.881941,-117.259015,RIVERSIDE,CA,MARCH AIR RESERVE BASE,8,24,7,14,35,42,1261,1514,1694,387,38
ORL,28.545464,-81.332937,ORLANDO,FL,EXECUTIVE AIRPORT,7,4,3,5,6,2,3,1,6,0,1
LGU,41.791222,-111.851583,LOGAN,UT,LOGAN-CACHE AIRPORT,7,9,9,8,8,12,12,159,88,0,0
GLR,45.013639,-84.703583,GAYLORD,MI,GAYLORD REGIONAL AIRPORT,7,15,15,14,12,2,254,154,1,0,2
ADW,38.810833,-76.867,CAMP SPRINGS,MD,ANDREWS AIR FORCE BASE,7,17,58,46,59,72,38,29,78,62,70
GON,41.330056,-72.045139,GROTON (NEW LONDON),CT,GROTON-NEW LONDON AIRPORT,6,8,6,5,4,1,2,1,4,0,12
MHM,63.885997,-152.301874,MINCHUMINA,AK,MINCHUMINA AIRPORT,6,58,12,10,46,65,78,64,58,32,15
MIE,40.242472,-85.39575,MUNCIE,IN,DELAWARE COUNTY REGIONAL AIRPORT,6,6,5,6,5,9,6,14,2,11,7
LCI,43.573042,-71.417842,LACONIA,NH,LACONIA MUNICIPAL AIRPORT,6,8,2,1,0,1,0,3,0,1,1
HUF,39.451472,-87.307583,TERRE HAUTE,IN,TERRE HAUTE INTERNATIONAL-HULMAN FIELD,6,36,15,17,12,11,10,20,11,8,24
NEW,30.042389,-90.02825,NEW ORLEANS,LA,LAKEFRONT AIRPORT,5,4,3,2,0,3,4,0,0,3,11
AND,34.494583,-82.709389,ANDERSON,SC,ANDERSON REGIONAL AIRPORT,5,7,10,17,25,21,11,23,4,6,3
BCT,26.3785,-80.107694,BOCA RATON,FL,BOCA RATON AIRPORT,5,1,0,3,9,0,4,6,4,0,0
APF,26.152287,-81.775793,NAPLES,FL,NAPLES MUNICIPAL AIRPORT,5,4,2,5,1,1,282,40,248,61,1
SBM,43.769769,-87.851722,SHEBOYGAN,WI,SHEBOYGAN COUNTY MEMORIAL AIRPORT,4,1,2,0,2,1,0,3,0,2,0
MTN,39.325667,-76.413778,BALTIMORE,MD,MARTIN STATE AIRPORT,4,0,0,6,4,2,2,2,3,1,0
DET,42.409194,-83.009861,DETROIT,MI,COLEMAN A. YOUNG MUNICIPAL AIRPORT,4,3,1,0,4,2,11,47,30,26,43
FXE,26.197279,-80.170706,FORT LAUDERDALE,FL,FORT LAUDERDALE EXECUTIVE AIRPORT,4,4,10,0,2,3,5,4,1,1,0
HFD,41.740393,-72.650627,HARTFORD,CT,HARTFORD-BRAINARD AIRPORT,4,2,3,6,2,2,7,9,7,0,0
FPR,27.497479,-80.372632,FORT PIERCE,FL,ST LUCIE COUNTY INTERNATIONAL AIRPORT,3,0,1,0,1,1,1,0,0,0,75
RIL,39.526306,-107.726944,RIFLE,CO,GARFIELD COUNTY REGIONAL AIRPORT,3,2,3,2,1,1,2,4,1,1,0
NJK,32.829167,-115.671667,EL CENTRO,CA,EL CENTRO NAF AIRPORT,3,92,105,2,7,2,4,2,1,1,0
PDK,33.875611,-84.301972,ATLANTA,GA,DEKALB-PEACHTREE AIRPORT,3,6,8,13,3,7,6,13,4,11,17
NHZ,43.892364,-69.93883,BRUNSWICK,ME,BRUNSWICK NAVAL AIR STATION AIRPORT,3,5,1,2,0,0,0,3,0,0,0
ROG,36.368729,-94.104474,ROGERS,AR,ROGERS MUNICIPAL AIRPORT-CARTER FIELD,3,4,7,2,2,1,1,2,1,1,2
ISM,28.289806,-81.437083,ORLANDO,FL,KISSIMMEE GATEWAY AIRPORT,2,1,0,1,0,1,0,2,2,1,0
SAC,38.512528,-121.493472,SACRAMENTO,CA,SACRAMENTO EXECUTIVE AIRPORT,2,1,2,2,4,4,0,2,0,0,0
NQA,35.356667,-89.870278,MILLINGTON,TN,MILLINGTON REGIONAL AIRPORT,2,0,1,0,1,5,10,6,3,5,7
JZI,32.700861,-80.002917,CHARLESTON,SC,CHARLESTON EXECUTIVE AIRPORT,2,1,0,0,0,0,0,0,0,0,2
BJC,39.908806,-105.117194,DENVER,CO,ROCKY MOUNTAIN METROPOLITAN AIRPORT,2,1,10,5,15,4,5,5,0,1,1
MCF,27.849333,-82.521167,TAMPA,FL,MAC DILL AIR FORCE BASE,2,1,0,5,4,2,3,7,3,2,1
IKV,41.691139,-93.5665,ANKENY,IA,ANKENY REGIONAL AIRPORT,2,3,2,1,0,0,0,0,0,0,0
OFF,41.119329,-95.90852,OMAHA,NE,OFFUTT AIR FORCE BASE,2,0,0,1,4,2,0,5,0,2,0
DVT,33.688306,-112.082556,PHOENIX,AZ,PHOENIX DEER VALLEY AIRPORT,2,4,2,2,0,0,2,2,0,0,9
NKT,34.903173,-76.880747,CHERRY POINT,NC,CHERRY POINT MARINE CORPS AIR STATION /CUNNINGHAM FIELD/,2,2,6,17,36,38,58,56,37,63,71
OKK,40.528177,-86.05899,KOKOMO,IN,KOKOMO MUNICIPAL AIRPORT,2,4,0,1,0,5,127,205,26,6,11
MHV,35.058639,-118.150556,MOJAVE,CA,MOJAVE AIRPORT,1,0,3,1,2,2,5,0,0,0,1
CCR,37.989667,-122.056889,CONCORD,CA,BUCHANAN FIELD AIRPORT,1,1,0,1,0,1,0,5,0,0,0
MFD,40.821417,-82.516639,MANSFIELD,OH,MANSFIELD LAHM REGIONAL AIRPORT,1,2,5,2,0,0,9,9,7,8,14
FTY,33.779139,-84.521361,ATLANTA,GA,FULTON COUNTY AIRPORT-BROWN FIELD,1,1,1,2,6,2,2,4,1,0,1
DMA,32.1665,-110.883167,TUCSON,AZ,DAVIS MONTHAN AIR FORCE BASE,1,1,0,0,3,2,2,7,6,5,4
CSM,35.339839,-99.200499,CLINTON,OK,CLINTON-SHERMAN AIRPORT,1,0,0,3,8,2,11,2,2,0,2
LFI,37.082833,-76.3605,HAMPTON,VA,LANGLEY AIR FORCE BASE,1,2,0,1,3,7,2,10,2,7,5
LSV,36.236197,-115.034253,LAS VEGAS,NV,NELLIS AIR FORCE BASE,1,10,7,3,11,22,20,34,16,29,35
OXR,34.200806,-119.207222,OXNARD,CA,OXNARD AIRPORT,1,2,0,1,23,0,1,1,2,0,1
HOP,36.672361,-87.492486,FORT CAMPBELL/HOPKINSVILLE,KY,CAMPBELL ARMY AIRFIELD (FORT CAMPBELL),1,0,10,3,6,13,14,5,19,23,10
POB,35.170833,-79.0145,FAYETTEVILLE,NC,POPE AIR FORCE BASE,1,5,2,5,21,53,28,28,39,21,55
CVS,34.380348,-103.319504,CLOVIS,NM,CANNON AIR FORCE BASE,1,0,0,0,1,0,0,10,2,16,20
BRY,37.814333,-85.499639,BARDSTOWN,KY,SAMUELS FIELD AIRPORT,1,0,1,0,0,0,0,0,1,0,1
HKY,35.74115,-81.38955,HICKORY,NC,HICKORY REGIONAL AIRPORT,1,10,3,6,200,12,3,2,38,3,6
MTO,39.481138,-88.280439,MATTOON,IL,COLES COUNTY MEMORIAL AIRPORT,1,2,0,1,1,4,1,11,20,4,2
6S5,46.251494,-114.12554,HAMILTON,MT,RAVALLI COUNTY AIRPORT,0,0,0,0,0,0,0,0,0,0,0
SEE,32.826222,-116.972444,SAN DIEGO/EL CAJON,CA,GILLESPIE FIELD AIRPORT,0,0,0,0,0,0,0,0,0,0,0
RYY,34.013157,-84.597056,ATLANTA,GA,COBB COUNTY-MC COLLUM FIELD,0,0,0,0,0,0,0,0,0,0,0
JYO,39.077972,-77.5575,LEESBURG,VA,LEESBURG EXECUTIVE AIRPORT,0,0,0,0,0,0,0,0,0,0,0
CAD,44.275333,-85.418917,CADILLAC,MI,WEXFORD COUNTY AIRPORT,0,0,0,0,0,0,0,0,0,0,0
0B8,41.251308,-72.031611,FISHERS ISLAND,NY,ELIZABETH FIELD AIRPORT,0,0,0,0,0,0,0,0,0,0,0
SDM,32.572272,-116.980161,SAN DIEGO,CA,BROWN FIELD MUNICIPAL AIRPORT,0,0,0,0,0,0,0,0,0,0,0
IXD,38.830917,-94.890306,OLATHE,KS,NEW CENTURY AIRCENTER AIRPORT,0,0,0,0,0,0,0,0,0,0,0
S59,48.283845,-115.490245,LIBBY,MT,LIBBY AIRPORT,0,0,0,0,0,0,0,0,0,0,0
GEU,33.526917,-112.295139,GLENDALE,AZ,GLENDALE MUNICIPAL AIRPORT,0,0,0,0,0,0,0,0,0,0,0
FMY,26.586611,-81.86325,FORT MYERS,FL,PAGE FIELD AIRPORT,0,0,0,0,0,0,0,0,0,0,0
FST,30.91525,-102.912778,FORT STOCKTON,TX,FORT STOCKTON-PECOS COUNTY AIRPORT,0,0,0,0,0,0,0,0,0,0,0
51Z,65.143709,-149.369965,MINTO,AK,MINTO AL WRIGHT AIRPORT,0,0,0,0,0,0,0,0,0,0,0
WSN,58.732881,-157.01992,NAKNEK,AK,NAKNEK AIRPORT,0,0,0,0,0,0,0,0,0,0,0
JVY,38.365417,-85.738194,JEFFERSONVILLE,IN,CLARK REGIONAL AIRPORT,0,0,0,0,0,0,0,0,0,0,0
COE,47.774306,-116.819583,COEUR D'ALENE,ID,COEUR D'ALENE AIR TERMINAL,0,0,0,0,0,0,0,0,0,0,0
HMN,32.851859,-106.108536,ALAMOGORDO,NM,HOLLOMAN AIR FORCE BASE,0,0,0,0,0,0,0,0,0,0,0
TNC,65.564033,-167.922458,TIN CITY,AK,TIN CITY LRRS AIRPORT,0,0,0,0,0,0,0,0,0,0,0
E91,36.110881,-109.575422,CHINLE,AZ,CHINLE MUNICIPAL AIRPORT,0,0,0,0,0,0,0,0,0,0,0
UBW,70.330819,-149.597555,KUPARUK,AK,UGNU-KUPARUK AIRPORT,0,0,0,0,0,0,0,0,0,0,0
FCI,37.406444,-77.524833,RICHMOND,VA,CHESTERFIELD COUNTY AIRPORT,0,0,0,0,0,0,0,0,0,0,0
CAR,46.8715,-68.017917,CARIBOU,ME,CARIBOU MUNICIPAL AIRPORT,0,0,0,0,0,0,0,0,0,0,0
UGB,57.425358,-157.739866,PILOT POINT,AK,UGASHIK BAY AIRPORT,0,0,0,0,0,0,0,0,0,0,0
UGN,42.42216,-87.867907,CHICAGO/WAUKEGAN,IL,WAUKEGAN REGIONAL AIRPORT,0,0,0,0,0,0,0,0,0,0,0
SGR,29.62225,-95.656528,HOUSTON,TX,SUGAR LAND REGIONAL AIRPORT,0,0,0,0,0,0,0,0,0,0,0
UMT,69.371113,-152.134983,UMIAT,AK,UMIAT AIRPORT,0,0,0,0,0,0,0,0,0,0,0
SRV,61.78975,-156.588528,STONY RIVER,AK,STONY RIVER 2 AIRPORT,0,0,0,0,0,0,0,0,0,0,0
TCT,62.992704,-156.06819,TAKOTNA,AK,TAKOTNA AIRPORT,0,0,0,0,0,0,0,0,0,0,0
PWA,35.534167,-97.647056,OKLAHOMA CITY,OK,WILEY POST AIRPORT,0,0,0,0,0,0,0,0,0,0,0
C29,43.11427,-89.531534,MIDDLETON,WI,MIDDLETON MUNICIPAL - MOREY FIELD AIRPORT,0,0,0,0,0,0,0,0,0,0,0
HDC,30.521687,-90.418381,HAMMOND,LA,HAMMOND NORTHSHORE REGIONAL AIRPORT,0,0,0,0,0,0,0,0,0,0,0
JKA,30.289639,-87.671778,GULF SHORES,AL,JACK EDWARDS AIRPORT,0,0,0,0,0,0,0,0,0,0,0
OJC,38.847602,-94.737586,OLATHE,KS,JOHNSON COUNTY EXECUTIVE AIRPORT,0,0,0,0,0,0,0,0,0,0,0
ELY,39.299694,-114.841889,ELY,NV,ELY AIRPORT /YELLAND FIELD/ AIRPORT,0,0,0,0,0,0,0,0,0,0,0
PWT,47.49025,-122.764806,BREMERTON,WA,BREMERTON NATIONAL AIRPORT,0,0,0,0,0,0,0,0,0,0,0
TRK,39.320042,-120.139563,TRUCKEE,CA,TRUCKEE-TAHOE AIRPORT,0,0,0,0,0,0,0,0,0,0,0
65S,48.725972,-116.295167,BONNERS FERRY,ID,BOUNDARY COUNTY AIRPORT,0,0,0,0,0,0,0,0,0,0,0
OSU,40.079778,-83.073028,COLUMBUS,OH,OHIO STATE UNIVERSITY AIRPORT,0,0,0,0,0,0,0,0,0,0,0
MLS,46.427972,-105.88625,MILES CITY,MT,FRANK WILEY FIELD AIRPORT,0,0,0,0,0,0,0,0,0,0,0
NBC,32.480611,-80.71925,BEAUFORT,SC,BEAUFORT MARINE CORPS AIR STATION,0,0,0,0,0,0,0,0,0,0,0
LOM,40.137556,-75.265139,PHILADELPHIA,PA,WINGS FIELD AIRPORT,0,0,0,0,0,0,0,0,0,0,0
BVS,48.470889,-122.420861,BURLINGTON/MOUNT VERNON,WA,SKAGIT REGIONAL AIRPORT,0,0,0,0,0,0,0,0,0,0,0
BDN,44.094556,-121.200222,BEND,OR,BEND MUNICIPAL AIRPORT,0,0,0,0,0,0,0,0,0,0,0
SSI,31.151812,-81.391253,BRUNSWICK,GA,MALCOLM MC KINNON AIRPORT,0,0,0,0,0,0,0,0,0,0,0
WLK,66.766044,-160.15277,SELAWIK,AK,ROLAND NORTON MEMORIAL AIRSTRIP,0,0,0,0,0,0,0,0,0,0,0
OUL,56.007536,-161.160367,NELSON LAGOON,AK,NELSON LAGOON AIRPORT,0,0,0,0,0,0,0,0,0,0,0
TMB,25.647889,-80.432778,MIAMI,FL,KENDALL-TAMIAMI EXECUTIVE AIRPORT,0,0,0,0,0,0,0,0,0,0,0
DTS,30.400061,-86.471477,DESTIN,FL,DESTIN-FORT WALTON BEACH AIRPORT,0,0,0,0,0,0,0,0,0,0,0
CRC,65.827917,-144.076197,CIRCLE,AK,CIRCLE CITY /NEW/ AIRPORT,0,0,0,0,0,0,0,0,0,0,0
AKA,52.220586,-174.206183,ATKA,AK,ATKA AIRPORT,0,0,0,0,0,0,0,0,0,0,0
OTM,41.106596,-92.44794,OTTUMWA,IA,OTTUMWA REGIONAL AIRPORT,0,0,0,0,0,0,0,0,0,0,0
WSN,58.702083,-157.00258,SOUTH NAKNEK,AK,SOUTH NAKNEK NR 2 AIRPORT,0,0,0,0,0,0,0,0,0,0,0
FCM,44.827467,-93.458575,MINNEAPOLIS,MN,FLYING CLOUD AIRPORT,0,0,0,0,0,0,0,0,0,0,0
UDD,33.748438,-116.274813,PALM SPRINGS,CA,BERMUDA DUNES AIRPORT,0,0,0,0,0,0,0,0,0,0,0
STJ,39.771944,-94.909706,ST JOSEPH,MO,ROSECRANS MEMORIAL AIRPORT,0,0,0,0,0,0,0,0,0,0,0
BCV,61.416083,-149.508306,BIRCHWOOD,AK,BIRCHWOOD AIRPORT,0,0,0,0,0,0,0,0,0,0,0
FSP,63.01856,-154.35843,NIKOLAI,AK,NIKOLAI AIRPORT,0,0,0,0,0,0,0,0,0,0,0
AAO,37.747583,-97.221111,WICHITA,KS,COLONEL JAMES JABARA AIRPORT,0,0,0,0,0,0,0,0,0,0,0
ZUN,35.083227,-108.791777,ZUNI PUEBLO,NM,BLACK ROCK AIRPORT,0,0,0,0,0,0,0,0,0,0,0
0S9,48.053809,-122.810644,PORT TOWNSEND,WA,JEFFERSON COUNTY INTERNATIONAL AIRPORT,0,0,0,0,0,0,0,0,0,0,0
SZL,38.730291,-93.54799,KNOB NOSTER,MO,WHITEMAN AIR FORCE BASE,0,0,0,0,0,0,0,0,0,0,0
MIB,48.415769,-101.358039,MINOT,ND,MINOT AIR FORCE BASE,0,0,0,0,0,0,0,0,0,0,0
NXX,40.199833,-75.148167,WILLOW GROVE,PA,WILLOW GROVE NAVAL AIR STATION JOINT RESERVE BASE,0,0,0,0,0,0,0,0,0,0,0
SLI,33.790032,-118.051429,LOS ALAMITOS,CA,LOS ALAMITOS ARMY AIRFIELD,0,0,0,0,0,0,0,0,0,0,0
TRM,33.626667,-116.159667,PALM SPRINGS,CA,JACQUELINE COCHRAN REGIONAL AIRPORT,0,0,0,0,0,0,0,0,0,0,0
ALM,32.839944,-105.990583,ALAMOGORDO,NM,ALAMOGORDO-WHITE SANDS REGIONAL AIRPORT,0,0,0,0,0,0,0,0,0,0,0
SLQ,61.700518,-157.165881,SLEETMUTE,AK,SLEETMUTE AIRPORT,0,0,0,0,0,0,0,0,0,0,0
Z91,66.273996,-145.824038,BIRCH CREEK,AK,BIRCH CREEK AIRPORT,0,0,0,0,0,0,0,0,0,0,0
IOW,41.639767,-91.548136,IOWA CITY,IA,IOWA CITY MUNICIPAL AIRPORT,0,0,0,0,0,0,0,0,0,0,0
NUW,48.351841,-122.655958,OAK HARBOR,WA,WHIDBEY ISLAND NAVAL AIR STATION /AULT FIELD/,0,0,0,0,0,0,0,0,0,0,0
SKA,47.615058,-117.655803,SPOKANE,WA,FAIRCHILD AIR FORCE BASE,0,0,0,0,0,0,0,0,0,0,0
SKW,61.965295,-151.19137,SKWENTNA,AK,SKWENTNA AIRPORT,0,0,0,0,0,0,0,0,0,0,0
32S,46.525111,-114.052806,STEVENSVILLE,MT,STEVENSVILLE AIRPORT,0,0,0,0,0,0,0,0,0,0,0
SUA,27.1817,-80.221294,STUART,FL,WITHAM FIELD AIRPORT,0,0,0,0,0,0,0,0,0,0,0
TYQ,40.030667,-86.251444,INDIANAPOLIS,IN,INDIANAPOLIS EXECUTIVE AIRPORT,0,0,0,0,0,0,0,0,0,0,0
SVS,66.017061,-149.054369,STEVENS VILLAGE,AK,STEVENS VILLAGE AIRPORT,0,0,0,0,0,0,0,0,0,0,0
FFO,39.825968,-84.046102,DAYTON,OH,WRIGHT-PATTERSON AIR FORCE BASE,0,0,0,0,0,0,0,0,0,0,0
RQE,35.652056,-109.067389,WINDOW ROCK,AZ,WINDOW ROCK AIRPORT,0,0,0,0,0,0,0,0,0,0,0
LWT,47.04925,-109.466694,LEWISTOWN,MT,LEWISTOWN MUNICIPAL AIRPORT,0,0,0,0,0,0,0,0,0,0,0
PBV,56.577353,-169.663736,ST GEORGE,AK,SAINT GEORGE AIRPORT,0,0,0,0,0,0,0,0,0,0,0
LRF,34.916769,-92.146542,JACKSONVILLE,AR,LITTLE ROCK AIR FORCE BASE,0,0,0,0,0,0,1,3,6,3,1
SZT,48.299528,-116.560139,SANDPOINT,ID,SANDPOINT AIRPORT,0,0,0,0,0,0,0,0,0,0,0
VRB,27.655556,-80.417944,VERO BEACH,FL,VERO BEACH MUNICIPAL AIRPORT,0,0,0,0,0,0,0,0,0,0,0
4K0,59.78961,-154.123833,PEDRO BAY,AK,PEDRO BAY AIRPORT,0,0,0,0,0,0,0,0,0,0,0
HND,35.972861,-115.134444,LAS VEGAS,NV,HENDERSON EXECUTIVE AIRPORT,0,0,0,0,0,0,0,0,0,0,0
CJX,61.867861,-158.134917,CROOKED CREEK,AK,CROOKED CREEK AIRPORT,0,0,0,0,0,0,0,0,0,0,0
NFW,32.769186,-97.441533,FORT WORTH,TX,FORT WORTH NAVAL AIR STATION JRB/CARSWELL FIELD,0,0,0,0,0,0,0,0,0,0,0
PAM,30.07,-85.5765,PANAMA CITY,FL,TYNDALL AIR FORCE BASE,0,0,0,0,0,0,0,0,0,0,0
AJC,56.311462,-158.37324,CHIGNIK,AK,CHIGNIK AIRPORT,0,0,0,0,0,0,0,0,0,0,0
SMO,34.015833,-118.451306,SANTA MONICA,CA,SANTA MONICA MUNICIPAL AIRPORT,0,0,0,0,0,0,0,0,0,0,0
GLD,39.370622,-101.698992,GOODLAND,KS,RENNER FIELD /GOODLAND MUNICIPAL/ AIRPORT,0,0,0,0,0,0,0,0,0,0,0
RCA,44.145094,-103.103567,RAPID CITY,SD,ELLSWORTH AIR FORCE BASE,0,0,0,0,0,0,0,0,0,0,0
GSB,35.339385,-77.960592,GOLDSBORO,NC,SEYMOUR JOHNSON AIR FORCE BASE,0,0,0,0,2,1,4,1,1,1,3
DYS,32.419785,-99.855383,ABILENE,TX,DYESS AIR FORCE BASE,0,0,0,0,0,0,0,0,0,0,0
SHX,62.692306,-159.569222,SHAGELUK,AK,SHAGELUK AIRPORT,0,0,0,0,0,0,0,0,0,0,0
TTN,40.276691,-74.813468,TRENTON,NJ,TRENTON MERCER AIRPORT,0,0,0,0,0,0,0,0,0,0,0
WBQ,66.362218,-147.406538,BEAVER,AK,BEAVER AIRPORT,0,0,0,0,0,0,0,0,0,0,0
NHK,38.285981,-76.411781,PATUXENT RIVER,MD,PATUXENT RIVER NAVAL AIR STATION/TRAPNELL FIELD/,0,0,0,0,0,0,0,0,0,0,0
S31,48.483913,-122.937681,LOPEZ,WA,LOPEZ ISLAND AIRPORT,0,0,0,0,0,0,0,0,0,0,0
MUO,43.043599,-115.872426,MOUNTAIN HOME,ID,MOUNTAIN HOME AIR FORCE BASE,0,0,0,0,0,0,0,0,0,0,0
BAD,32.501932,-93.662628,BOSSIER CITY,LA,BARKSDALE AIR FORCE BASE,0,1,0,0,7,8,7,8,6,6,11
VAD,30.9687,-83.192961,VALDOSTA,GA,MOODY AIR FORCE BASE,0,0,0,0,0,0,0,0,0,0,0
HEF,38.721417,-77.515444,MANASSAS,VA,MANAVAL AIR STATIONSAS REGIONAL/HARRY P. DAVIS FIELD,0,0,0,0,0,0,0,0,0,0,0
TIK,35.41474,-97.386633,OKLAHOMA CITY,OK,TINKER AIR FORCE BASE,0,0,0,0,0,0,0,0,0,0,0
HIF,41.123939,-111.973039,OGDEN,UT,HILL AIR FORCE BASE,0,0,0,2,6,12,5,10,8,5,8
VNY,34.209806,-118.489972,VAN NUYS,CA,VAN NUYS AIRPORT,0,0,0,0,0,0,0,0,0,0,0
DEE,66.069561,-162.766368,DEERING,AK,DEERING AIRPORT,0,0,0,0,0,0,0,0,0,0,0
LRU,32.289417,-106.921972,LAS CRUCES,NM,LAS CRUCES INTERNATIONAL AIRPORT,0,0,0,0,0,0,0,0,0,0,0
NBG,29.827215,-90.026588,NEW ORLEANS,LA,NEW ORLEANS NAVAL AIR STATION JRB/ALVIN CALLENDER FIELD/,0,0,0,0,0,0,0,0,0,0,0
TCL,33.220628,-87.611401,TUSCALOOSA,AL,TUSCALOOSA REGIONAL AIRPORT,0,0,0,0,0,0,0,0,0,0,0
74S,48.498993,-122.662396,ANACORTES,WA,ANACORTES AIRPORT,0,0,0,0,0,0,0,0,0,0,0
VIS,36.318667,-119.392889,VISALIA,CA,VISALIA MUNICIPAL AIRPORT,0,0,0,0,0,0,0,0,0,0,0
SSC,33.972716,-80.470571,SUMTER,SC,SHAW AIR FORCE BASE,0,0,0,0,0,0,0,0,0,0,0
YIP,42.239304,-83.530965,DETROIT,MI,WILLOW RUN AIRPORT,0,0,0,0,0,0,0,0,0,0,0
4KA,60.575547,-165.271648,TUNUNAK,AK,TUNUNAK AIRPORT,0,0,0,0,0,0,0,0,0,0,0
HRT,30.427833,-86.689333,MARY ESTHER,FL,HURLBURT FIELD AIRPORT,0,0,0,0,0,0,0,0,0,0,0
WNA,60.690333,-161.9785,NAPAKIAK,AK,NAPAKIAK AIRPORT,0,0,0,0,0,0,0,0,0,0,0
AST,46.157972,-123.878694,ASTORIA,OR,ASTORIA REGIONAL AIRPORT,0,0,0,96,148,37,6,2,0,0,0
WMO,64.689194,-163.41275,WHITE MOUNTAIN,AK,WHITE MOUNTAIN AIRPORT,0,0,0,0,0,0,0,0,0,0,0
SKF,29.384228,-98.581167,SAN ANTONIO,TX,LACKLAND AIR FORCE BASE (KELLY FIELD ANNEX),0,0,0,0,0,0,0,0,0,0,0
TOG,59.053626,-160.396924,TOGIAK VILLAGE,AK,TOGIAK AIRPORT,0,0,0,0,0,0,0,0,0,0,0
VEE,67.008675,-146.366358,VENETIE,AK,VENETIE AIRPORT,0,0,0,0,0,0,0,0,0,0,0
SDY,47.706861,-104.192556,SIDNEY,MT,SIDNEY-RICHLAND MUNICIPAL AIRPORT,0,0,0,0,0,0,0,0,0,0,0
UIN,39.943018,-91.194464,QUINCY,IL,QUINCY REGIONAL-BALDWIN FIELD,0,0,0,0,0,0,0,0,0,0,0
4K5,57.922876,-152.50051,OUZINKIE,AK,OUZINKIE AIRPORT,0,0,0,0,0,0,0,0,0,0,0
ARW,32.412167,-80.634354,BEAUFORT,SC,BEAUFORT COUNTY AIRPORT,0,0,0,0,0,0,0,0,0,0,0
SXP,62.520556,-164.847778,SHELDON POINT,AK,SHELDON POINT AIRPORT,0,0,0,0,0,0,0,0,0,0,0
WRB,32.640143,-83.591849,WARNER ROBINS,GA,ROBINS AIR FORCE BASE,0,0,0,0,0,0,0,0,0,0,0
4A2,60.866746,-162.27314,ATMAUTLUAK,AK,ATMAUTLUAK AIRPORT,0,0,0,0,0,0,0,0,0,0,0
SWO,36.161222,-97.085694,STILLWATER,OK,STILLWATER REGIONAL AIRPORT,0,0,0,0,0,0,0,0,0,0,0
NZY,32.698195,-117.213104,SAN DIEGO,CA,NORTH ISLAND NAVAL AIR STATION /HALSEY FIELD/,0,0,0,0,0,0,0,0,0,0,0
TYE,61.076662,-151.13807,TYONEK,AK,TYONEK AIRPORT,0,0,0,0,0,0,0,0,0,0,0
AFM,67.106314,-157.857472,AMBLER,AK,AMBLER AIRPORT,0,0,0,0,0,0,0,0,0,0,0
BLG,61.172219,-151.043898,BELUGA,AK,BELUGA AIRPORT,0,0,0,0,0,0,0,0,0,0,0
WBB,63.515971,-162.277993,STEBBINS,AK,STEBBINS AIRPORT,0,0,0,0,0,0,0,0,0,0,0
SVC,32.636547,-108.156385,SILVER CITY,NM,GRANT COUNTY AIRPORT,0,0,0,0,0,0,0,0,0,0,0
SHG,66.888077,-157.1624,SHUNGNAK,AK,SHUNGNAK AIRPORT,0,0,0,0,0,0,0,0,0,0,0
TLT,61.096833,-160.969472,TULUKSAK,AK,TULUKSAK AIRPORT,0,0,0,0,0,0,0,0,0,0,0
STP,44.934623,-93.060342,ST PAUL,MN,ST. PAUL DOWNTOWN AIRPORT / HOLMAN FIELD,0,0,0,0,0,0,0,0,0,0,0
SDL,33.622889,-111.910528,SCOTTSDALE,AZ,SCOTTSDALE AIRPORT,0,0,0,0,0,0,0,0,0,0,0
16A,60.906011,-162.440591,NUNAPITCHUK,AK,NUNAPITCHUK AIRPORT,0,0,0,0,0,0,0,0,0,0,0
SUU,38.262667,-121.9275,FAIRFIELD,CA,TRAVIS AIR FORCE BASE,0,0,0,0,0,0,0,0,0,0,0
WRL,43.965713,-107.950831,WORLAND,WY,WORLAND MUNICIPAL AIRPORT,0,0,0,0,0,0,0,0,0,0,0
GGV,59.876469,-163.168538,KWIGILLINGOK,AK,KWIGILLINGOK AIRPORT,0,0,0,0,0,0,0,0,0,0,0
TVF,48.065667,-96.185,THIEF RIVER FALLS,MN,THIEF RIVER FALLS REGIONAL AIRPORT,0,0,0,0,0,0,0,0,0,0,0
SUS,38.662111,-90.652056,ST LOUIS,MO,SPIRIT OF ST LOUIS AIRPORT,0,0,0,0,0,0,0,0,0,0,0
6R7,57.218103,-153.269749,OLD HARBOR,AK,OLD HARBOR AIRPORT,0,0,0,0,0,0,0,0,0,0,0
SNP,57.167333,-170.22044,ST PAUL ISLAND,AK,ST PAUL ISLAND AIRPORT,0,0,0,0,0,0,0,0,0,0,0
NKX,32.868346,-117.141735,SAN DIEGO,CA,MIRAMAR MARINE CORPS AIR STATION,0,0,0,0,0,0,0,0,0,0,0
A61,60.335346,-162.667009,TUNTUTULIAK,AK,TUNTUTULIAK AIRPORT,0,0,0,0,0,0,0,0,0,0,0
SHH,66.249567,-166.089346,SHISHMAREF,AK,SHISHMAREF AIRPORT,0,0,0,0,0,0,0,0,0,0,0
SMK,63.490056,-162.110389,ST MICHAEL,AK,ST MICHAEL AIRPORT,0,0,0,0,0,0,0,0,0,0,0
TAL,65.174395,-152.109389,TANANA,AK,RALPH M CALHOUN MEMORIAL AIRPORT,0,0,0,0,0,0,0,0,0,0,0
0AK,61.934556,-162.899556,PILOT STATION,AK,PILOT STATION AIRPORT,0,0,0,0,0,0,0,0,0,0,0
SCM,61.844541,-165.573749,SCAMMON BAY,AK,SCAMMON BAY AIRPORT,0,0,0,0,0,0,0,0,0,0,0
ORS,48.708335,-122.9106,EASTSOUND,WA,ORCAS ISLAND AIRPORT,0,0,0,0,0,0,0,0,0,0,0
SVA,63.686394,-170.492636,SAVOONGA,AK,SAVOONGA AIRPORT,0,0,0,0,0,0,0,0,0,0,0
WYS,44.688389,-111.117639,WEST YELLOWSTONE,MT,YELLOWSTONE AIRPORT,0,0,0,0,0,0,0,0,0,0,0
MGN,45.425565,-84.913384,HARBOR SPRINGS,MI,HARBOR SPRINGS AIRPORT,0,0,0,0,0,0,0,0,0,0,0
SLK,44.385306,-74.206194,SARANAC LAKE,NY,ADIRONDACK REGIONAL AIRPORT,0,0,0,0,0,0,0,0,0,0,0
SDP,55.313694,-160.521417,SAND POINT,AK,SAND POINT AIRPORT,0,0,0,0,0,0,0,0,0,0,0
VAK,61.540845,-165.60089,CHEVAK,AK,CHEVAK AIRPORT,0,0,0,0,0,0,0,0,0,0,0
TBN,37.741631,-92.140736,FORT LEONARD WOOD,MO,WAYNESVILLE-ST. ROBERT REGIONAL FORNEY FIELD AIRPORT,0,0,0,0,0,0,0,0,0,0,0
SLN,38.790966,-97.65217,SALINA,KS,SALINA MUNICIPAL AIRPORT,0,0,0,0,0,0,0,0,0,0,0
SOW,34.265472,-110.005667,SHOW LOW,AZ,SHOW LOW REGIONAL AIRPORT,0,0,0,0,0,0,0,0,0,0,0
VEL,40.440917,-109.509917,VERNAL,UT,VERNAL REGIONAL AIRPORT,0,0,0,0,0,0,0,0,0,0,0
HUM,29.5665,-90.660417,HOUMA,LA,HOUMA-TERREBONNE AIRPORT,0,0,0,0,0,0,0,0,0,0,0
WTK,67.561072,-162.980353,NOATAK,AK,NOATAK AIRPORT,0,0,0,0,0,0,0,0,0,0,0
WLK,66.600139,-159.98575,SELAWIK,AK,SELAWIK AIRPORT,0,0,0,0,0,0,0,0,0,0,0
D76,66.817528,-161.02225,NOORVIK,AK,ROBERT/BOB/CURTIS MEMORIAL AIRPORT,0,0,0,0,0,0,0,0,0,0,0
EIL,64.665667,-147.1015,FAIRBANKS,AK,EIELSON AIR FORCE BASE,0,2,8,13,22,8,19,10,11,14,26
SOV,59.442439,-151.70405,SELDOVIA,AK,SELDOVIA AIRPORT,0,0,0,0,0,0,0,0,0,0,0
SHD,38.263833,-78.896444,STAUNTON/WAYNESBORO/HARRISONBURG,VA,SHENANDOAH VALLEY REGIONAL AIRPORT,0,0,0,0,0,0,0,0,0,0,0
VCT,28.852556,-96.918487,VICTORIA,TX,VICTORIA REGIONAL AIRPORT,0,0,0,0,0,0,0,0,0,0,0
LBX,29.108639,-95.462083,ANGLETON/LAKE JACKSON,TX,BRAZORIA COUNTY AIRPORT,0,0,0,0,0,0,0,0,0,0,0
PMD,34.629389,-118.084553,PALMDALE,CA,PALMDALE REGIONAL/USAF PLANT 42 AIRPORT,0,0,0,0,0,0,0,0,0,0,0
SVN,32.01002,-81.145988,SAVANNAH,GA,HUNTER ARMY AIRFIELD,0,0,0,0,0,0,0,0,0,0,0
WRG,56.484333,-132.369833,WRANGELL,AK,WRANGELL AIRPORT,0,0,0,0,0,0,0,0,0,0,0
VOK,43.939237,-90.253163,CAMP DOUGLAS,WI,VOLK FIELD AIRPORT,0,0,0,0,0,0,0,0,0,0,0
SGY,59.460062,-135.315664,SKAGWAY,AK,SKAGWAY AIRPORT,0,0,0,0,0,0,0,0,0,0,0
YAK,59.503306,-139.66025,YAKUTAT,AK,YAKUTAT AIRPORT,0,0,0,0,0,0,0,0,0,0,0
WST,41.349617,-71.803378,WESTERLY,RI,WESTERLY STATE AIRPORT,0,0,0,0,0,0,0,0,0,0,0
UNK,63.888496,-160.799111,UNALAKLEET,AK,UNALAKLEET AIRPORT,0,0,0,0,0,0,0,0,0,0,0
TEB,40.850101,-74.060836,TETERBORO,NJ,TETERBORO AIRPORT,0,0,0,0,0,0,0,0,0,0,0
TCM,47.137678,-122.476475,TACOMA,WA,MCCHORD AIR FORCE BASE,0,0,0,0,0,0,0,0,0,0,0
TEX,37.953759,-107.90848,TELLURIDE,CO,TELLURIDE REGIONAL AIRPORT,0,0,0,0,0,0,0,0,0,0,0
LSF,32.33179,-84.987159,FORT BENNING(COLUMBUS),GA,LAWSON ARMY AIRFIELD (FORT BENNING),0,0,0,0,0,0,0,0,0,0,0
FHR,48.521972,-123.024361,FRIDAY HARBOR,WA,FRIDAY HARBOR AIRPORT,0,0,0,0,0,0,0,0,0,0,0
SIG,18.456827,-66.098139,SAN JUAN,PR,FERNANDO LUIS RIBAS DOMINICCI AIRPORT,0,0,0,0,0,0,0,0,0,0,0
GTB,44.055667,-75.7195,FORT DRUM,NY,WHEELER-SACK ARMY AIRFIELD,0,0,0,0,0,0,0,0,0,0,0
VDZ,61.13395,-146.24834,VALDEZ,AK,VALDEZ AIRPORT,0,0,0,0,0,0,0,0,0,0,0
TUP,34.268108,-88.769895,TUPELO,MS,TUPELO REGIONAL AIRPORT,0,0,0,0,0,0,0,0,0,0,0
6Y8,45.721162,-85.520344,BEAVER ISLAND,MI,WELKE AIRPORT,0,0,0,0,0,0,0,0,0,0,0
SHR,44.769194,-106.980278,SHERIDAN,WY,SHERIDAN COUNTY AIRPORT,0,0,0,0,0,0,0,0,0,0,0
YNG,41.260736,-80.679097,YOUNGSTOWN/WARREN,OH,YOUNGSTOWN-WARREN REGIONAL AIRPORT,0,0,0,0,0,0,0,0,0,0,0
CVX,45.304778,-85.275333,CHARLEVOIX,MI,CHARLEVOIX MUNICIPAL AIRPORT,0,0,0,0,0,0,0,0,0,0,0
SGJ,29.95925,-81.339722,ST AUGUSTINE,FL,ST AUGUSTINE AIRPORT,0,0,0,0,0,0,0,0,0,0,0
STC,45.546556,-94.059889,ST CLOUD,MN,ST CLOUD REGIONAL AIRPORT,0,0,0,0,0,0,0,0,0,0,0
WRI,40.015582,-74.591708,WRIGHTSTOWN,NJ,MC GUIRE AIR FORCE BASE,0,0,0,0,0,0,0,0,0,0,0
VQS,18.134811,-65.493617,ISLA DE VIEQUES,PR,ANTONIO RIVERA RODRIGUEZ AIRPORT,0,0,0,0,0,0,0,0,0,0,0
TWF,42.481806,-114.48775,TWIN FALLS,ID,JOSLIN FIELD - MAGIC VALLEY REGIONAL AIRPORT,0,0,0,0,0,0,0,0,0,0,0
TXK,33.453722,-93.991028,TEXARKANA,AR,TEXARKANA REGIONAL-WEBB FIELD,0,0,0,0,0,0,0,0,0,0,0
VCV,34.597472,-117.383,VICTORVILLE,CA,SOUTHERN CALIFORNIA LOGISTICS AIRPORT,0,0,0,0,0,0,0,0,0,0,0
CRQ,33.12825,-117.280083,CARLSBAD,CA,MC CLELLAN-PALOMAR AIRPORT,0,0,0,0,0,0,0,0,0,0,0
SCK,37.894167,-121.238306,STOCKTON,CA,STOCKTON METROPOLITAN AIRPORT,0,0,0,0,0,0,0,0,0,0,0
VLD,30.781372,-83.276219,VALDOSTA,GA,VALDOSTA REGIONAL AIRPORT,0,0,0,0,0,0,0,0,0,0,0
SPS,33.988796,-98.491893,WICHITA FALLS,TX,SHEPPARD AIR FORCE BASE/WICHITA FALLS MUNICIPAL AIRPORT,0,0,0,0,0,0,0,0,0,0,0
SUX,42.402603,-96.384367,SIOUX CITY,IA,SIOUX GATEWAY/COL. BUD DAY FIELD,0,0,0,0,0,0,0,0,0,0,0
SMX,34.898917,-120.457444,SANTA MARIA,CA,SANTA MARIA PUB/CAPT G ALLAN HANCOCK FIELD,0,0,0,0,0,0,0,0,0,0,0
SAW,46.353639,-87.395361,MARQUETTE,MI,SAWYER INTERNATIONAL AIRPORT,0,0,0,0,0,0,0,0,0,0,0
SPI,39.84421,-89.67809,SPRINGFIELD,IL,ABRAHAM LINCOLN CAPITAL AIRPORT,0,0,0,0,0,0,0,0,0,0,0
SBY,38.340189,-75.50948,SALISBURY,MD,SALISBURY-OCEAN CITY WICOMICO REGIONAL AIRPORT,0,0,0,0,0,0,0,0,0,0,0
UTA,34.685056,-90.347778,TUNICA,MS,TUNICA MUNICIPAL AIRPORT,0,0,0,0,0,0,0,0,0,0,0
SUN,43.503779,-114.295553,HAILEY,ID,FRIEDMAN MEMORIAL AIRPORT,0,0,0,0,0,0,0,0,0,0,0
SJT,31.35775,-100.496306,SAN ANGELO,TX,SAN ANGELO REGIONAL/MATHIS FIELD,0,0,0,0,0,0,0,0,0,0,0
VGT,36.210694,-115.194444,LAS VEGAS,NV,NORTH LAS VEGAS AIRPORT,0,0,0,0,0,0,0,0,0,0,0
SIT,57.047139,-135.361611,SITKA,AK,SITKA ROCKY GUTIERREZ AIRPORT,0,0,0,0,0,0,0,0,0,0,0
YKM,46.568167,-120.544056,YAKIMA,WA,YAKIMA AIR TERMINAL/MCALLISTER FIELD,0,0,0,0,0,0,0,0,0,0,0
TYR,32.354139,-95.402386,TYLER,TX,TYLER POUNDS REGIONAL AIRPORT,0,0,0,0,0,0,0,0,0,0,0
HXD,32.224361,-80.697472,HILTON HEAD ISLAND,SC,HILTON HEAD AIRPORT,0,0,0,0,0,0,0,0,0,0,0
SCC,70.19475,-148.465167,DEADHORSE,AK,DEADHORSE AIRPORT,0,0,0,0,0,0,0,0,0,0,0
STS,38.508989,-122.812875,SANTA ROSA,CA,CHARLES M. SCHULZ - SONOMA COUNTY AIRPORT,0,0,0,0,0,0,0,0,0,0,0
TOL,41.586806,-83.807833,TOLEDO,OH,TOLEDO EXPRESS AIRPORT,0,0,0,0,0,0,0,0,0,0,0
UNV,40.849278,-77.848694,STATE COLLEGE,PA,UNIVERSITY PARK AIRPORT,0,0,0,0,0,0,0,0,0,0,0
SBP,35.237266,-120.642597,SAN LUIS OBISPO,CA,SAN LUIS COUNTY REGIONAL AIRPORT,0,0,0,0,0,0,0,0,0,0,0
STX,17.701556,-64.801722,CHRISTIANSTED,VI,HENRY E ROHLSEN AIRPORT,0,0,0,0,0,0,0,0,0,0,0
TVC,44.741639,-85.582361,TRAVERSE CITY,MI,CHERRY CAPITAL AIRPORT,0,0,0,0,0,0,0,0,0,0,0
GPI,48.310472,-114.256,KALISPELL,MT,GLACIER PARK INTERNATIONAL AIRPORT,0,0,0,0,0,0,0,0,0,0,0
IWA,33.307833,-111.655472,PHOENIX,AZ,PHOENIX-MESA GATEWAY AIRPORT,0,0,0,0,0,0,0,0,0,0,0
TRI,36.475222,-82.407417,BRISTOL/JOHNSON/KINGSPORT,TN,TRI-CITIES REGIONAL AIRPORT,0,0,0,0,0,0,0,0,0,0,0
SHV,32.446611,-93.825611,SHREVEPORT,LA,SHREVEPORT REGIONAL AIRPORT,0,0,0,0,0,0,0,0,0,0,0
VPS,30.483219,-86.526044,VALPARAISO,FL,EGLIN AIR FORCE BASE,0,0,0,0,0,0,0,0,0,0,0
SGF,37.245667,-93.388639,SPRINGFIELD,MO,SPRINGFIELD-BRANSON NATIONAL AIRPORT,0,0,0,0,0,0,0,0,0,0,0
SWF,41.504111,-74.104833,NEWBURGH,NY,STEWART INTERNATIONAL AIRPORT,0,0,0,0,0,0,0,0,0,0,0
TLH,30.396528,-84.350333,TALLAHASSEE,FL,TALLAHASSEE REGIONAL AIRPORT,0,0,0,0,0,0,0,0,0,0,0
XNA,36.281869,-94.306811,FAYETTEVILLE/SPRINGDALE/,AR,NORTHWEST ARKANSAS REGIONAL AIRPORT,0,0,0,0,0,0,0,0,0,0,0
STT,18.337306,-64.973361,CHARLOTTE AMALIE,VI,CYRIL E KING AIRPORT,0,0,0,0,0,0,0,0,0,0,0
SRQ,27.395444,-82.554389,SARASOTA/BRADENTON,FL,SARASOTA/BRADENTON INTERNATIONAL AIRPORT,0,0,0,0,0,0,0,0,0,0,0
TYS,35.810972,-83.994028,KNOXVILLE,TN,MC GHEE TYSON AIRPORT,0,0,0,0,0,0,0,0,0,0,0
SFB,28.776701,-81.235522,ORLANDO,FL,ORLANDO SANFORD INTERNATIONAL AIRPORT,0,0,0,0,0,0,0,0,0,0,0
SYR,43.111187,-76.106311,SYRACUSE,NY,SYRACUSE HANCOCK INTERNATIONAL AIRPORT,0,0,0,0,0,0,0,0,0,0,0
TUL,36.198389,-95.888111,TULSA,OK,TULSA INTERNATIONAL AIRPORT,0,0,0,0,0,0,0,0,0,0,0
SDF,38.174086,-85.736499,LOUISVILLE,KY,LOUISVILLE INTERNATIONAL-STANDIFORD FIELD,0,0,0,0,0,0,0,0,0,0,0
TUS,32.116083,-110.941028,TUCSON,AZ,TUCSON INTERNATIONAL AIRPORT,0,0,0,0,0,0,0,0,0,0,0
SNA,33.675667,-117.868222,SANTA ANA,CA,JOHN WAYNE AIRPORT-ORANGE COUNTY AIRPORT,0,0,0,0,0,0,0,0,0,0,0
SJU,18.439417,-66.001833,SAN JUAN,PR,LUIS MUNOZ MARIN INTERNATIONAL AIRPORT,0,0,0,0,0,0,0,0,0,0,0
SJC,37.362667,-121.929111,SAN JOSE,CA,NORMAN Y. MINETA SAN JOSE INTERNATIONAL AIRPORT,0,0,0,0,0,0,0,0,0,0,0
SMF,38.695417,-121.590778,SACRAMENTO,CA,SACRAMENTO INTERNATIONAL AIRPORT,0,0,0,0,0,0,0,0,0,0,0
STL,38.748697,-90.370029,ST LOUIS,MO,LAMBERT-ST LOUIS INTERNATIONAL AIRPORT,0,0,0,0,0,0,0,0,0,0,0
TPA,27.975472,-82.53325,TAMPA,FL,TAMPA INTERNATIONAL AIRPORT,0,0,0,0,0,0,0,0,0,0,0
SLC,40.788388,-111.977773,SALT LAKE CITY,UT,SALT LAKE CITY INTERNATIONAL AIRPORT,0,0,0,0,0,0,0,0,0,0,0
SEA,47.449889,-122.311778,SEATTLE,WA,SEATTLE-TACOMA INTERNATIONAL AIRPORT,0,0,0,0,0,0,0,0,0,0,0
SFO,37.618972,-122.374889,SAN FRANCISCO,CA,SAN FRANCISCO INTERNATIONAL AIRPORT,0,0,0,0,0,0,0,0,0,0,0
BKF,39.707894,-104.751975,AURORA,CO,BUCKLEY AIR FORCE BASE,0,0,0,0,0,0,0,0,0,0,0
INS,36.587442,-115.675744,INDIAN SPRINGS,NV,CREECH AIR FORCE BASE,0,0,0,0,0,0,0,0,0,0,0
EDW,34.915449,-117.897993,EDWARDS,CA,EDWARDS AIR FORCE BASE,0,0,0,0,0,0,0,0,0,0,0
VBG,34.733184,-120.569977,LOMPOC,CA,VANDENBERG AIR FORCE BASE,0,0,0,0,0,0,0,0,0,0,0
MXF,32.379384,-86.358588,MONTGOMERY,AL,MAXWELL AIR FORCE BASE,0,0,0,0,0,0,0,0,0,0,0
COF,28.240301,-80.604549,COCOA BEACH,FL,PATRICK AIR FORCE BASE,0,0,0,0,0,0,0,0,0,0,0
N58,39.559611,-119.241444,FERNLEY,NV,TIGER FIELD AIRPORT,0,0,0,0,0,0,0,0,0,0,0
U79,45.379078,-115.19678,CHAMBERLAIN GUARD STATION,ID,CHAMBERLAIN US FOREST SERVICE AIRPORT,0,0,0,0,0,0,0,0,0,0,0
GWR,46.218667,-97.643472,GWINNER,ND,GWINNER-ROGER MELROE FIELD AIRPORT,0,0,0,0,0,0,0,0,0,0,0
MCL,63.732598,-148.910638,MCKINLEY PARK,AK,MC KINLEY NATIONAL PARK AIRPORT,0,0,0,0,0,0,0,0,0,0,0
NGP,27.692701,-97.290376,CORPUS CHRISTI,TX,CORPUS CHRISTI NAVAL AIR STATION/TRUAX FIELD,0,0,0,0,0,0,0,0,0,0,0
0.00E+00,35.717659,-108.201596,CROWNPOINT,NM,CROWNPOINT AIRPORT,0,0,0,0,0,0,0,0,0,0,0
MGE,33.915333,-84.516333,MARIETTA,GA,DOBBINS AIR RESERVE BASE AIRPORT,0,0,0,0,0,0,0,0,0,0,0
PCW,41.51627,-82.869487,PORT CLINTON,OH,CARL R KELLER FIELD AIRPORT,0,0,0,0,0,0,0,0,0,0,0
BFK,36.863301,-99.618731,BUFFALO,OK,BUFFALO MUNICIPAL AIRPORT,0,0,0,0,0,0,0,0,0,0,0
5G7,40.885444,-83.868639,BLUFFTON,OH,BLUFFTON AIRPORT,0,0,0,0,0,0,0,0,0,0,0
FSO,44.940281,-73.09746,HIGHGATE,VT,FRANKLIN COUNTY STATE AIRPORT,0,0,0,0,0,0,0,0,0,0,0
MNN,40.61625,-83.063472,MARION,OH,MARION MUNICIPAL AIRPORT,0,0,0,0,0,0,0,0,0,0,0
LRO,32.897833,-79.782861,MOUNT PLEASANT,SC,MT PLEASANT REGIONAL-FAISON FIELD AIRPORT,0,0,0,0,0,0,0,0,0,0,0
A26,41.1865,-120.954389,ADIN,CA,ADIN AIRPORT,0,0,0,0,0,0,0,0,0,0,0
NFL,39.416586,-118.700981,FALLON,NV,FALLON NAVAL AIR STATION /VAN VOORHIS FIELD/,0,0,0,0,0,0,0,0,0,0,0
16G,41.094056,-83.2125,TIFFIN,OH,SENECA COUNTY AIRPORT,0,0,0,0,0,0,0,0,0,0,0
94E,32.76202,-108.20838,SILVER CITY,NM,WHISKEY CREEK AIRPORT,0,0,0,0,0,0,0,0,0,0,0
NLC,36.333011,-119.952081,LEMOORE,CA,LEMOORE NAVAL AIR STATION (REEVES FIELD),0,0,0,0,0,0,0,0,0,0,0
LNN,41.684028,-81.38975,WILLOUGHBY,OH,WILLOUGHBY LOST NATION MUNICIPAL AIRPORT,0,0,0,0,0,0,0,0,0,0,0
SMN,45.123781,-113.881332,SALMON,ID,LEMHI COUNTY AIRPORT,0,0,0,0,0,0,0,0,0,0,0
SVE,40.375694,-120.572694,SUSANVILLE,CA,SUSANVILLE MUNICIPAL AIRPORT,0,0,0,0,0,0,0,0,0,0,0
RKP,28.086222,-97.043694,ROCKPORT,TX,ARANSAS COUNTY AIRPORT,0,0,0,0,0,0,0,0,0,0,0
A57,59.199217,-138.451,YAKUTAT,AK,ALSEK RIVER AIRPORT,0,0,0,0,0,0,0,0,0,0,0
CIN,42.046194,-94.789,CARROLL,IA,ARTHUR N NEU AIRPORT,0,0,0,0,0,0,0,0,0,0,0
DUC,34.471306,-97.959861,DUNCAN,OK,HALLIBURTON FIELD AIRPORT,0,0,0,0,0,0,0,0,0,0,0
5Z5,63.541715,-150.993955,KANTISHNA,AK,KANTISHNA AIRPORT,0,0,0,0,0,0,0,0,0,0,0
MPR,38.352444,-97.691306,MC PHERSON,KS,MC PHERSON AIRPORT,0,0,0,0,0,0,0,0,0,0,0
TLA,65.240379,-166.33934,TELLER,AK,TELLER AIRPORT,0,0,0,0,0,0,0,0,0,0,0
WAA,65.622585,-168.094939,WALES,AK,WALES AIRPORT,0,0,0,0,0,0,0,0,0,0,0
PTN,29.709546,-91.338979,PATTERSON,LA,HARRY P WILLIAMS MEMORIAL AIRPORT,0,0,0,0,0,0,0,0,0,0,0
0R3,29.975778,-92.084222,ABBEVILLE,LA,ABBEVILLE CHRIS CRUSTA MEMORIAL AIRPORT,0,0,0,0,0,0,0,0,0,0,0
WWT,60.939139,-164.64125,NEWTOK,AK,NEWTOK AIRPORT,0,0,0,0,0,0,0,0,0,0,0
SKK,64.371083,-161.223972,SHAKTOOLIK,AK,SHAKTOOLIK AIRPORT,0,0,0,0,0,0,0,0,0,0,0
WOW,61.754189,-150.051739,WILLOW,AK,WILLOW AIRPORT,0,0,0,0,0,0,0,0,0,0,0
CYK,60.149226,-164.285632,CHEFORNAK,AK,CHEFORNAK AIRPORT,0,0,0,0,0,0,0,0,0,0,0
SGU,37.090583,-113.593056,ST GEORGE,UT,SAINT GEORGE MUNICIPAL AIRPORT,0,0,0,0,0,0,0,0,0,0,0
PFN,30.212083,-85.682806,PANAMA CITY,FL,PANAMA CITY-BAY COUNTY INTERNATIONAL AIRPORT,0,0,0,0,0,0,0,0,0,0,0
GFA,47.504683,-111.188586,GREAT FALLS,MT,MALMSTROM AIR FORCE BASE,0,0,0,0,0,0,0,0,0,0,0
LTS,34.656626,-99.279288,ALTUS,OK,ALTUS AIR FORCE BASE,0,0,0,0,0,0,0,0,0,0,0
END,36.341068,-97.907008,ENID,OK,VANCE AIR FORCE BASE,0,0,0,0,0,0,0,0,0,0,0
AYX,35.398707,-86.078495,TULLAHOMA,TN,ARNOLD AIR FORCE BASE,0,0,0,0,0,0,0,0,0,0,0
DLF,29.35995,-100.77759,DEL RIO,TX,LAUGHLIN AIR FORCE BASE,0,0,0,0,0,0,0,0,0,0,0
RND,29.52967,-98.2789,UNIVERSAL CITY,TX,RANDOLPH AIR FORCE BASE,0,0,0,0,0,0,0,0,0,0,0
FEW,41.133037,-104.867469,CHEYENNE,WY,FRANCIS E WARREN AIR FORCE BASE,0,0,0,0,0,0,0,0,0,0,0
RDR,47.953843,-97.390364,GRAND FORKS,ND,GRAND FORKS AIR FORCE BASE,0,0,0,0,0,0,0,0,0,0,0
BAB,39.146108,-121.431376,MARYSVILLE,CA,BEALE AIR FORCE BASE,0,0,0,0,0,0,0,0,0,0,0
LUF,33.536525,-112.369863,GLENDALE,AZ,LUKE AIR FORCE BASE,0,0,0,0,0,0,0,0,0,0,0
CBM,33.638414,-88.450949,COLUMBUS,MS,COLUMBUS AIR FORCE BASE,0,0,0,0,0,0,0,0,0,0,0
BIX,30.407516,-88.922951,BILOXI,MS,KEESLER AIR FORCE BASE,0,0,0,0,0,0,0,0,0,0,0
NONE,29.24133,-95.342552,DANBURY,TX,SALAIKA AVIATION AIRPORT,0,0,0,0,0,0,0,0,0,0,0
DWH,30.062174,-95.550737,HOUSTON,TX,DAVID WAYNE HOOKS MEMORIAL AIRPORT,0,0,0,0,0,0,0,0,0,0,0
FHU,31.583465,-110.34156,FORT HUACHUCA,AZ,SIERRA VISTA MUNICIPAL AIRPORT-LIBBY ARMY AIRFIELD,0,1,1,3,5,5,0,48,603,501,14
SDX,34.849106,-111.789031,SEDONA,AZ,SEDONA AIRPORT,0,0,0,0,0,0,0,0,0,0,0
CRE,33.811284,-78.723351,NORTH MYRTLE BEACH,SC,GRAND STRAND AIRPORT,0,0,0,0,0,0,0,0,0,0,0
NONE,36.2597,-113.23132,WHITMORE,AZ,GRAND CANYON BAR TEN AIRSTRIP,0,0,0,0,0,0,0,0,0,0,0
AMK,37.20318,-107.8692,DURANGO,CO,ANIMAS AIR PARK,0,0,0,0,0,0,0,0,0,0,0
GUY,36.678392,-101.506557,GUYMON,OK,GUYMON MUNICIPAL AIRPORT,0,0,0,0,0,0,0,0,0,0,0
SOP,35.235383,-79.397715,PINEHURST/SOUTHERN PINES,NC,MOORE COUNTY AIRPORT,0,0,0,0,0,0,0,0,0,0,0
TVL,38.892795,-119.998071,SOUTH LAKE TAHOE,CA,LAKE TAHOE AIRPORT,0,0,0,0,0,0,0,0,0,0,0
MQB,40.517494,-90.656047,MACOMB,IL,MACOMB MUNICIPAL AIRPORT,0,0,0,0,0,0,0,0,0,0,0
VYS,41.350607,-89.15308,PERU,IL,ILLINOIS VALLEY REGIONAL AIRPORT-WALTER A DUNCAN FIELD,0,0,0,0,0,0,0,0,0,0,0
NONE,40.948811,-80.857961,SALEM,OH,SALEM AIRPARK INC,0,0,0,0,0,0,0,0,0,0,0
SPW,43.167129,-95.197271,SPENCER,IA,SPENCER MUNICIPAL AIRPORT,0,0,0,0,0,0,0,0,0,0,0
UES,43.039049,-88.236885,WAUKESHA,WI,WAUKESHA COUNTY AIRPORT,0,0,0,0,0,0,0,0,0,0,0
BEH,42.12576,-86.428571,BENTON HARBOR,MI,SOUTHWEST MICHIGAN REGIONAL AIRPORT,0,0,0,0,0,0,0,0,0,0,0
OSH,43.994288,-88.553254,OSHKOSH,WI,WITTMAN REGIONAL AIRPORT,0,0,0,0,0,0,0,0,0,0,0
POU,41.624479,-73.882582,POUGHKEEPSIE,NY,DUTCHESS COUNTY AIRPORT,0,2,0,1,1,1,3,1,0,0,0
NONE,44.305662,-68.912416,ISLESBORO,ME,ISLESBORO AIRPORT,0,0,0,0,0,0,0,0,0,0,0
TIW,47.26793,-122.5781,TACOMA,WA,TACOMA NARROWS AIRPORT,0,0,0,0,0,0,0,0,0,0,0
EII,58.186177,-157.37484,EGEGIK,AK,EGEGIK AIRPORT,0,0,0,0,0,0,0,0,0,0,0
WOW,61.753335,-150.054458,WILLOW,AK,WILLOW AIRPORT,0,0,0,0,0,0,0,0,0,0,0
BVK,65.979946,-161.139298,BUCKLAND,AK,BUCKLAND AIRPORT,0,0,0,0,0,0,0,0,0,0,0
CFK,60.157082,-164.285773,CHEFORNAK,AK,CHEFORNAK AIRPORT,0,0,0,0,0,0,0,0,0,0,0
ENM,62.780193,-164.490443,EMMONAK,AK,EMMONAK AIRPORT,0,0,0,0,0,0,0,0,0,0,0
WAA,65.61704,-168.094887,WALES,AK,WALES AIRPORT,0,0,0,0,0,0,0,0,0,0,0
